G90;
G21;
G10 L20 P1 X0 Y0;
G54;
F5000;
G4 P0;
M40 S30;
G4 P0.12;
G1 X-340.500 Y-5.500 F5000;
G4 P0;
M40 S30;
G4 P0.12;
G0 F5000 X-323.548 Y8.731;
G4 P0;
M40 S0;
G4 P0.12;
G1 X-331.797 Y16.980 F5000;
G4 P0;
M40 S30;
G4 P0.12;
G0 X-321.566 Y29.391;
G4 P0;
M40 S0;
G4 P0.12;
G1 X-314.584 Y22.409 F5000;
G4 P0;
M40 S30;
G4 P0.12;
G0 X-310.336 Y17.314;
G4 P0;
M40 S0;
G4 P0.12;
G1 X-308.789 Y15.767 F5000;
G4 P0;
M40 S30;
G4 P0.12;
G0 X-306.942 Y16.435;
G4 P0;
M40 S0;
G4 P0.12;
G1 X-306.942 Y33.331 F5000;
G4 P0;
M40 S30;
G4 P0.12;
G0 X-305.189 Y36.932;
G4 P0;
M40 S0;
G4 P0.12;
G1 X-306.238 Y37.982 F5000;
G4 P0;
M40 S30;
G4 P0.12;
G0 X-303.933 Y39.153;
G4 P0;
M40 S0;
G4 P0.12;
G1 X-303.933 Y42.096 F5000;
G4 P0;
M40 S30;
G4 P0.12;
G0 X-303.283 Y41.983;
G4 P0;
M40 S0;
G4 P0.12;
G1 X-283.444 Y22.144 F5000;
G1 X-283.460 Y24.612 F5000;
G4 P0;
M40 S30;
G4 P0.12;
G0 X-283.409 Y26.733;
G4 P0;
M40 S0;
G4 P0.12;
G1 X-302.992 Y26.733 F5000;
G4 P0;
M40 S30;
G4 P0.12;
G0 X-301.851 Y22.499;
G4 P0;
M40 S0;
G4 P0.12;
G1 X-307.790 Y22.499 F5000;
G4 P0;
M40 S30;
G4 P0.12;
G0 X-303.933 Y20.970;
G4 P0;
M40 S0;
G4 P0.12;
G1 X-303.933 Y15.010 F5000;
G4 P0;
M40 S30;
G4 P0.12;
G0 X-290.208 Y13.530;
G4 P0;
M40 S0;
G4 P0.12;
G1 X-287.883 Y13.530 F5000;
G4 P0;
M40 S30;
G4 P0.12;
G0 X-283.460 Y20.634;
G4 P0;
M40 S0;
G4 P0.12;
G1 X-283.460 Y22.027 F5000;
G4 P0;
M40 S30;
G4 P0.12;
G0 X-293.033 Y24.776;
G4 P0;
M40 S0;
G4 P0.12;
G1 X-298.503 Y30.246 F5000;
G4 P0;
M40 S30;
G4 P0.12;
G0 X-296.258 Y43.653;
G4 P0;
M40 S0;
G4 P0.12;
G1 X-307.198 Y54.593 F5000;
G1 X-306.942 Y50.470 F5000;
G4 P0;
M40 S30;
G4 P0.12;
G0 X-305.775 Y48.767;
G4 P0;
M40 S0;
G4 P0.12;
G1 X-296.294 Y48.767 F5000;
G4 P0;
M40 S30;
G4 P0.12;
G0 X-303.933 Y48.207;
G4 P0;
M40 S0;
G4 P0.12;
G1 X-303.933 Y69.257 F5000;
G4 P0;
M40 S30;
G4 P0.12;
G0 X-306.942 Y67.366;
G4 P0;
M40 S0;
G4 P0.12;
G1 X-306.942 Y65.057 F5000;
G4 P0;
M40 S30;
G4 P0.12;
G0 X-306.942 Y55.332;
G4 P0;
M40 S0;
G4 P0.12;
G1 X-306.942 Y54.725 F5000;
G4 P0;
M40 S30;
G4 P0.12;
G0 X-310.746 Y49.446;
G4 P0;
M40 S0;
G4 P0.12;
G1 X-314.295 Y52.995 F5000;
G4 P0;
M40 S30;
G4 P0.12;
G0 X-314.550 Y46.400;
G4 P0;
M40 S0;
G4 P0.12;
G1 X-314.118 Y45.968 F5000;
G4 P0;
M40 S30;
G4 P0.12;
G0 X-318.804 Y76.758;
G4 P0;
M40 S0;
G4 P0.12;
G1 X-318.804 Y78.838 F5000;
G4 P0;
M40 S30;
G4 P0.12;
G0 X-319.740 Y79.230;
G4 P0;
M40 S0;
G4 P0.12;
G1 X-310.983 Y79.230 F5000;
G4 P0;
M40 S30;
G4 P0.12;
G0 X-311.660 Y77.914;
G4 P0;
M40 S0;
G4 P0.12;
G1 X-313.430 Y79.684 F5000;
G1 X-313.432 Y81.867 F5000;
G4 P0;
M40 S30;
G4 P0.12;
G0 X-313.432 Y79.531;
G4 P0;
M40 S0;
G4 P0.12;
G1 X-313.432 Y78.948 F5000;
G4 P0;
M40 S30;
G4 P0.12;
G0 X-304.959 Y86.974;
G4 P0;
M40 S0;
G4 P0.12;
G1 X-313.010 Y95.024 F5000;
G4 P0;
M40 S30;
G4 P0.12;
G0 X-313.432 Y96.463;
G4 P0;
M40 S0;
G4 P0.12;
G1 X-313.432 Y93.543 F5000;
G4 P0;
M40 S30;
G4 P0.12;
G0 X-324.065 Y86.977;
G4 P0;
M40 S0;
G4 P0.12;
G1 X-324.065 Y85.496 F5000;
G4 P0;
M40 S30;
G4 P0.12;
G0 X-329.255 Y91.022;
G4 P0;
M40 S0;
G4 P0.12;
G1 X-329.255 Y92.184 F5000;
G4 P0;
M40 S30;
G4 P0.12;
G0 X-328.897 Y92.245;
G4 P0;
M40 S0;
G4 P0.12;
G1 X-330.059 Y92.245 F5000;
G4 P0;
M40 S30;
G4 P0.12;
G0 X-330.985 Y97.435;
G4 P0;
M40 S0;
G4 P0.12;
G1 X-331.807 Y98.257 F5000;
G4 P0;
M40 S30;
G4 P0.12;
G0 X-323.613 Y121.461;
G4 P0;
M40 S0;
G4 P0.12;
G1 X-326.231 Y124.080 F5000;
G4 P0;
M40 S30;
G4 P0.12;
G0 X-322.128 Y125.980;
G4 P0;
M40 S0;
G4 P0.12;
G1 X-318.424 Y125.980 F5000;
G4 P0;
M40 S30;
G4 P0.12;
G0 X-317.035 Y120.790;
G4 P0;
M40 S0;
G4 P0.12;
G1 X-314.940 Y120.790 F5000;
G4 P0;
M40 S30;
G4 P0.12;
G0 X-302.861 Y129.661;
G4 P0;
M40 S0;
G4 P0.12;
G1 X-307.511 Y134.311 F5000;
G4 P0;
M40 S30;
G4 P0.12;
G0 X-303.149 Y143.989;
G4 P0;
M40 S0;
G4 P0.12;
G1 X-305.740 Y146.580 F5000;
G4 P0;
M40 S30;
G4 P0.12;
G0 X-309.892 Y147.230;
G4 P0;
M40 S0;
G4 P0.12;
G1 X-312.104 Y147.230 F5000;
G4 P0;
M40 S30;
G4 P0.12;
G0 X-307.630 Y155.553;
G4 P0;
M40 S0;
G4 P0.12;
G1 X-307.630 Y163.622 F5000;
G4 P0;
M40 S30;
G4 P0.12;
G0 X-307.623 Y173.113;
G4 P0;
M40 S0;
G4 P0.12;
G1 X-310.503 Y173.113 F5000;
G4 P0;
M40 S30;
G4 P0.12;
G0 X-304.836 Y176.294;
G4 P0;
M40 S0;
G4 P0.12;
G1 X-301.048 Y176.294 F5000;
G4 P0;
M40 S30;
G4 P0.12;
G0 X-301.864 Y176.224;
G4 P0;
M40 S0;
G4 P0.12;
G1 X-301.864 Y181.906 F5000;
G4 P0;
M40 S30;
G4 P0.12;
G0 X-298.445 Y190.444;
G4 P0;
M40 S0;
G4 P0.12;
G1 X-300.641 Y192.639 F5000;
G4 P0;
M40 S30;
G4 P0.12;
G0 X-299.685 Y193.252;
G4 P0;
M40 S0;
G4 P0.12;
G1 X-299.685 Y215.968 F5000;
G4 P0;
M40 S30;
G4 P0.12;
G0 X-301.285 Y215.257;
G4 P0;
M40 S0;
G4 P0.12;
G1 X-310.927 Y215.257 F5000;
G4 P0;
M40 S30;
G4 P0.12;
G0 X-305.814 Y215.282;
G4 P0;
M40 S0;
G4 P0.12;
G1 X-305.814 Y211.556 F5000;
G4 P0;
M40 S30;
G4 P0.12;
G0 X-294.408 Y215.940;
G4 P0;
M40 S0;
G4 P0.12;
G1 X-289.724 Y215.940 F5000;
G4 P0;
M40 S30;
G4 P0.12;
G0 X-294.655 Y224.761;
G4 P0;
M40 S0;
G4 P0.12;
G1 X-294.655 Y226.242 F5000;
G4 P0;
M40 S30;
G4 P0.12;
G0 X-293.961 Y226.320;
G4 P0;
M40 S0;
G4 P0.12;
G1 X-295.442 Y226.320 F5000;
G4 P0;
M40 S30;
G4 P0.12;
G0 X-302.175 Y230.645;
G4 P0;
M40 S0;
G4 P0.12;
G1 X-309.283 Y237.754 F5000;
G4 P0;
M40 S30;
G4 P0.12;
G0 X-309.681 Y246.833;
G4 P0;
M40 S0;
G4 P0.12;
G1 X-311.932 Y249.084 F5000;
G4 P0;
M40 S30;
G4 P0.12;
G0 X-325.795 Y248.702;
G4 P0;
M40 S0;
G4 P0.12;
G1 X-325.795 Y246.648 F5000;
G4 P0;
M40 S30;
G4 P0.12;
G0 X-326.903 Y253.529;
G4 P0;
M40 S0;
G4 P0.12;
G1 X-326.903 Y255.126 F5000;
G4 P0;
M40 S30;
G4 P0.12;
G0 X-338.717 Y247.892;
G4 P0;
M40 S0;
G4 P0.12;
G1 X-340.411 Y249.586 F5000;
G4 P0;
M40 S30;
G4 P0.12;
G0 X-329.255 Y239.803;
G4 P0;
M40 S0;
G4 P0.12;
G1 X-329.255 Y234.321 F5000;
G4 P0;
M40 S30;
G4 P0.12;
G0 X-325.451 Y230.301;
G4 P0;
M40 S0;
G4 P0.12;
G1 X-323.861 Y228.711 F5000;
G4 P0;
M40 S30;
G4 P0.12;
G0 X-327.926 Y226.320;
G4 P0;
M40 S0;
G4 P0.12;
G1 X-322.071 Y220.465 F5000;
G4 P0;
M40 S30;
G4 P0.12;
G0 X-322.890 Y217.083;
G4 P0;
M40 S0;
G4 P0.12;
G1 X-330.963 Y217.083 F5000;
G4 P0;
M40 S30;
G4 P0.12;
G0 X-323.258 Y199.290;
G4 P0;
M40 S0;
G4 P0.12;
G1 X-319.214 Y199.290 F5000;
G4 P0;
M40 S30;
G4 P0.12;
G0 X-316.202 Y201.235;
G4 P0;
M40 S0;
G4 P0.12;
G1 X-314.721 Y201.235 F5000;
G4 P0;
M40 S30;
G4 P0.12;
G0 X-315.415 Y201.157;
G4 P0;
M40 S0;
G4 P0.12;
G1 X-315.415 Y199.676 F5000;
G4 P0;
M40 S30;
G4 P0.12;
G0 X-315.415 Y180.353;
G4 P0;
M40 S0;
G4 P0.12;
G1 X-315.415 Y178.028 F5000;
G4 P0;
M40 S30;
G4 P0.12;
G0 X-334.710 Y174.855;
G4 P0;
M40 S0;
G4 P0.12;
G1 X-340.210 Y174.855 F5000;
G4 P0;
M40 S30;
G4 P0.12;
G0 X-339.586 Y169.492;
G4 P0;
M40 S0;
G4 P0.12;
G1 X-336.669 Y166.575 F5000;
G4 P0;
M40 S30;
G4 P0.12;
G0 X-332.110 Y150.932;
G4 P0;
M40 S0;
G4 P0.12;
G1 X-329.589 Y148.411 F5000;
G4 P0;
M40 S30;
G4 P0.12;
G0 X-338.337 Y149.768;
G4 P0;
M40 S0;
G4 P0.12;
G1 X-338.770 Y150.200 F5000;
G4 P0;
M40 S30;
G4 P0.12;
G0 X-298.912 Y158.850;
G4 P0;
M40 S0;
G4 P0.12;
G1 X-297.612 Y158.850 F5000;
G4 P0;
M40 S30;
G4 P0.12;
G0 X-296.405 Y169.165;
G4 P0;
M40 S0;
G4 P0.12;
G1 X-294.782 Y169.165 F5000;
G4 P0;
M40 S30;
G4 P0.12;
G0 X-282.580 Y170.390;
G4 P0;
M40 S0;
G4 P0.12;
G1 X-259.364 Y170.390 F5000;
G4 P0;
M40 S30;
G4 P0.12;
G0 X-261.287 Y170.644;
G4 P0;
M40 S0;
G4 P0.12;
G1 X-261.287 Y196.180 F5000;
G4 P0;
M40 S30;
G4 P0.12;
G0 X-256.064 Y190.309;
G4 P0;
M40 S0;
G4 P0.12;
G1 X-256.064 Y232.443 F5000;
G4 P0;
M40 S30;
G4 P0.12;
G0 X-258.508 Y226.464;
G4 P0;
M40 S0;
G4 P0.12;
G1 X-53.074 Y226.464 F5000;
G4 P0;
M40 S30;
G4 P0.12;
G0 X-52.685 Y230.385;
G4 P0;
M40 S0;
G4 P0.12;
G1 X-222.920 Y400.619 F5000;
G4 P0;
M40 S30;
G4 P0.12;
G0 X-221.073 Y401.032;
G4 P0;
M40 S0;
G4 P0.12;
G1 X-221.073 Y360.031 F5000;
G4 P0;
M40 S30;
G4 P0.12;
G0 X-224.822 Y356.462;
G4 P0;
M40 S0;
G4 P0.12;
G1 X-249.463 Y381.103 F5000;
G4 P0;
M40 S30;
G4 P0.12;
G0 X-244.121 Y384.179;
G4 P0;
M40 S0;
G4 P0.12;
G1 X-88.173 Y384.179 F5000;
G4 P0;
M40 S30;
G4 P0.12;
G0 X-85.503 Y382.412;
G4 P0;
M40 S0;
G4 P0.12;
G1 X-98.430 Y395.339 F5000;
G4 P0;
M40 S30;
G4 P0.12;
G0 X-97.067 Y399.460;
G4 P0;
M40 S0;
G4 P0.12;
G1 X-97.067 Y363.410 F5000;
G4 P0;
M40 S30;
G4 P0.12;
G0 X-87.079 Y367.765;
G4 P0;
M40 S0;
G4 P0.12;
G1 X-255.612 Y367.765 F5000;
G4 P0;
M40 S30;
G4 P0.12;
G0 X-256.064 Y372.446;
G4 P0;
M40 S0;
G4 P0.12;
G1 X-256.064 Y245.783 F5000;
G4 P0;
M40 S30;
G4 P0.12;
G0 X-251.574 Y238.634;
G4 P0;
M40 S0;
G4 P0.12;
G1 X-59.335 Y238.634 F5000;
G4 P0;
M40 S30;
G4 P0.12;
G0 X-47.068 Y230.227;
G4 P0;
M40 S0;
G4 P0.12;
G1 X-47.068 Y270.657 F5000;
G4 P0;
M40 S30;
G4 P0.12;
G0 X-44.982 Y267.815;
G4 P0;
M40 S0;
G4 P0.12;
G1 X-190.076 Y412.909 F5000;
G4 P0;
M40 S30;
G4 P0.12;
G0 X-187.136 Y412.795;
G4 P0;
M40 S0;
G4 P0.12;
G1 X-187.136 Y79.795 F5000;
G4 P0;
M40 S30;
G4 P0.12;
G0 X-183.978 Y79.892;
G4 P0;
M40 S0;
G4 P0.12;
G1 X-183.978 Y114.681 F5000;
G4 P0;
M40 S30;
G4 P0.12;
G0 X-183.978 Y122.685;
G4 P0;
M40 S0;
G4 P0.12;
G1 X-183.978 Y173.324 F5000;
G4 P0;
M40 S30;
G4 P0.12;
G0 X-183.978 Y179.743;
G4 P0;
M40 S0;
G4 P0.12;
G1 X-183.978 Y193.928 F5000;
G4 P0;
M40 S30;
G4 P0.12;
G0 X-183.978 Y213.027;
G4 P0;
M40 S0;
G4 P0.12;
G1 X-183.978 Y222.457 F5000;
G4 P0;
M40 S30;
G4 P0.12;
G0 X-183.978 Y228.876;
G4 P0;
M40 S0;
G4 P0.12;
G1 X-183.978 Y270.006 F5000;
G4 P0;
M40 S30;
G4 P0.12;
G0 X-183.978 Y279.595;
G4 P0;
M40 S0;
G4 P0.12;
G1 X-183.978 Y304.875 F5000;
G4 P0;
M40 S30;
G4 P0.12;
G0 X-179.342 Y299.094;
G4 P0;
M40 S0;
G4 P0.12;
G1 X-179.342 Y410.521 F5000;
G4 P0;
M40 S30;
G4 P0.12;
G0 X-177.360 Y410.647;
G4 P0;
M40 S0;
G4 P0.12;
G1 X-41.066 Y274.352 F5000;
G4 P0;
M40 S30;
G4 P0.12;
G0 X-46.223 Y275.729;
G4 P0;
M40 S0;
G4 P0.12;
G1 X-275.912 Y275.729 F5000;
G4 P0;
M40 S30;
G4 P0.12;
G0 X-277.949 Y279.005;
G4 P0;
M40 S0;
G4 P0.12;
G1 X-277.949 Y284.751 F5000;
G4 P0;
M40 S30;
G4 P0.12;
G0 X-269.656 Y288.251;
G4 P0;
M40 S0;
G4 P0.12;
G1 X-58.990 Y288.251 F5000;
G4 P0;
M40 S30;
G4 P0.12;
G0 X-47.068 Y281.297;
G4 P0;
M40 S0;
G4 P0.12;
G1 X-47.068 Y270.657 F5000;
G1 X-271.992 Y270.622 F5000;
G4 P0;
M40 S30;
G4 P0.12;
G0 X-277.949 Y258.234;
G4 P0;
M40 S0;
G4 P0.12;
G1 X-277.949 Y240.703 F5000;
G4 P0;
M40 S30;
G4 P0.12;
G0 X-279.345 Y234.970;
G4 P0;
M40 S0;
G4 P0.12;
G1 X-279.345 Y226.320 F5000;
G4 P0;
M40 S30;
G4 P0.12;
G0 X-281.756 Y225.815;
G4 P0;
M40 S0;
G4 P0.12;
G1 X-278.851 Y222.910 F5000;
G4 P0;
M40 S30;
G4 P0.12;
G0 X-273.718 Y222.751;
G4 P0;
M40 S0;
G4 P0.12;
G1 X-57.830 Y222.751 F5000;
G4 P0;
M40 S30;
G4 P0.12;
G0 X-49.607 Y209.101;
G4 P0;
M40 S0;
G4 P0.12;
G1 X-96.539 Y209.101 F5000;
G4 P0;
M40 S30;
G4 P0.12;
G0 X-101.941 Y208.336;
G4 P0;
M40 S0;
G4 P0.12;
G1 X-102.625 Y209.020 F5000;
G1 X-102.625 Y208.053 F5000;
G4 P0;
M40 S30;
G4 P0.12;
G0 X-107.753 Y209.101;
G4 P0;
M40 S0;
G4 P0.12;
G1 X-254.366 Y209.101 F5000;
G4 P0;
M40 S30;
G4 P0.12;
G0 X-248.974 Y206.982;
G4 P0;
M40 S0;
G4 P0.12;
G1 X-271.996 Y230.004 F5000;
G4 P0;
M40 S30;
G4 P0.12;
G0 X-269.718 Y226.464;
G4 P0;
M40 S0;
G4 P0.12;
G1 X-266.075 Y226.464 F5000;
G4 P0;
M40 S30;
G4 P0.12;
G0 X-270.435 Y220.157;
G4 P0;
M40 S0;
G4 P0.12;
G1 X-270.435 Y218.102 F5000;
G4 P0;
M40 S30;
G4 P0.12;
G0 X-270.868 Y220.265;
G4 P0;
M40 S0;
G4 P0.12;
G1 X-272.922 Y220.265 F5000;
G4 P0;
M40 S30;
G4 P0.12;
G0 X-277.949 Y216.984;
G4 P0;
M40 S0;
G4 P0.12;
G1 X-277.949 Y205.346 F5000;
G4 P0;
M40 S30;
G4 P0.12;
G0 X-276.040 Y203.608;
G4 P0;
M40 S0;
G4 P0.12;
G1 X-54.734 Y203.608 F5000;
G4 P0;
M40 S30;
G4 P0.12;
G0 X-47.797 Y209.654;
G4 P0;
M40 S0;
G4 P0.12;
G1 X-224.315 Y386.173 F5000;
G4 P0;
M40 S30;
G4 P0.12;
G0 X-231.305 Y387.773;
G4 P0;
M40 S0;
G4 P0.12;
G1 X-231.305 Y204.083 F5000;
G4 P0;
M40 S30;
G4 P0.12;
G0 X-237.794 Y198.612;
G4 P0;
M40 S0;
G4 P0.12;
G1 X-237.794 Y392.725 F5000;
G4 P0;
M40 S30;
G4 P0.12;
G0 X-241.510 Y394.022;
G4 P0;
M40 S0;
G4 P0.12;
G1 X-161.937 Y314.449 F5000;
G4 P0;
M40 S30;
G4 P0.12;
G0 X-154.299 Y306.811;
G4 P0;
M40 S0;
G4 P0.12;
G1 X-90.435 Y242.946 F5000;
G4 P0;
M40 S30;
G4 P0.12;
G0 X-84.964 Y237.475;
G4 P0;
M40 S0;
G4 P0.12;
G1 X-38.433 Y190.945 F5000;
G4 P0;
M40 S30;
G4 P0.12;
G0 X-43.757 Y191.954;
G4 P0;
M40 S0;
G4 P0.12;
G1 X-260.223 Y408.419 F5000;
G4 P0;
M40 S30;
G4 P0.12;
G0 X-259.442 Y401.568;
G4 P0;
M40 S0;
G4 P0.12;
G1 X-244.121 Y401.568 F5000;
G4 P0;
M40 S30;
G4 P0.12;
G0 X-243.227 Y404.353;
G4 P0;
M40 S0;
G4 P0.12;
G1 X-243.227 Y207.367 F5000;
G4 P0;
M40 S30;
G4 P0.12;
G0 X-247.294 Y190.090;
G4 P0;
M40 S0;
G4 P0.12;
G1 X-268.962 Y211.757 F5000;
G4 P0;
M40 S30;
G4 P0.12;
G0 X-268.348 Y209.101;
G4 P0;
M40 S0;
G4 P0.12;
G1 X-276.517 Y209.101 F5000;
G4 P0;
M40 S30;
G4 P0.12;
G0 X-289.227 Y233.002;
G4 P0;
M40 S0;
G4 P0.12;
G1 X-290.275 Y234.050 F5000;
G4 P0;
M40 S30;
G4 P0.12;
G0 X-298.296 Y241.206;
G4 P0;
M40 S0;
G4 P0.12;
G1 X-298.980 Y241.890 F5000;
G1 X-298.980 Y240.923 F5000;
G4 P0;
M40 S30;
G4 P0.12;
G0 X-287.666 Y245.674;
G4 P0;
M40 S0;
G4 P0.12;
G1 X-295.404 Y253.412 F5000;
G4 P0;
M40 S30;
G4 P0.12;
G0 X-297.543 Y257.694;
G4 P0;
M40 S0;
G4 P0.12;
G1 X-47.567 Y257.694 F5000;
G4 P0;
M40 S30;
G4 P0.12;
G0 X-47.135 Y260.967;
G4 P0;
M40 S0;
G4 P0.12;
G1 X-43.852 Y260.967 F5000;
G4 P0;
M40 S30;
G4 P0.12;
G0 X-55.342 Y260.967;
G4 P0;
M40 S0;
G4 P0.12;
G1 X-97.941 Y260.967 F5000;
G4 P0;
M40 S30;
G4 P0.12;
G0 X-104.589 Y260.967;
G4 P0;
M40 S0;
G4 P0.12;
G1 X-132.413 Y260.967 F5000;
G4 P0;
M40 S30;
G4 P0.12;
G0 X-143.986 Y260.967;
G4 P0;
M40 S0;
G4 P0.12;
G1 X-258.813 Y260.967 F5000;
G4 P0;
M40 S30;
G4 P0.12;
G0 X-262.475 Y254.112;
G4 P0;
M40 S0;
G4 P0.12;
G1 X-87.014 Y78.650 F5000;
G4 P0;
M40 S30;
G4 P0.12;
G0 X-89.686 Y80.173;
G4 P0;
M40 S0;
G4 P0.12;
G1 X-89.686 Y94.814 F5000;
G4 P0;
M40 S30;
G4 P0.12;
G0 X-91.668 Y99.250;
G4 P0;
M40 S0;
G4 P0.12;
G1 X-286.674 Y294.256 F5000;
G4 P0;
M40 S30;
G4 P0.12;
G0 X-298.296 Y290.087;
G4 P0;
M40 S0;
G4 P0.12;
G1 X-298.296 Y301.886 F5000;
G4 P0;
M40 S30;
G4 P0.12;
G0 X-303.305 Y304.341;
G4 P0;
M40 S0;
G4 P0.12;
G1 X-303.305 Y305.822 F5000;
G4 P0;
M40 S30;
G4 P0.12;
G0 X-295.159 Y308.902;
G4 P0;
M40 S0;
G4 P0.12;
G1 X-290.557 Y308.902 F5000;
G4 P0;
M40 S30;
G4 P0.12;
G0 X-296.175 Y326.660;
G4 P0;
M40 S0;
G4 P0.12;
G1 X-299.662 Y326.660 F5000;
G4 P0;
M40 S30;
G4 P0.12;
G0 X-282.545 Y326.742;
G4 P0;
M40 S0;
G4 P0.12;
G1 X-282.545 Y329.951 F5000;
G4 P0;
M40 S30;
G4 P0.12;
G0 X-279.165 Y331.559;
G4 P0;
M40 S0;
G4 P0.12;
G1 X-89.575 Y141.969 F5000;
G4 P0;
M40 S30;
G4 P0.12;
G0 X-89.686 Y143.187;
G4 P0;
M40 S0;
G4 P0.12;
G1 X-89.686 Y395.059 F5000;
G4 P0;
M40 S30;
G4 P0.12;
G0 X-97.396 Y386.976;
G4 P0;
M40 S0;
G4 P0.12;
G1 X-86.248 Y375.827 F5000;
G4 P0;
M40 S30;
G4 P0.12;
G0 X-74.945 Y390.312;
G4 P0;
M40 S0;
G4 P0.12;
G1 X-74.945 Y391.474 F5000;
G4 P0;
M40 S30;
G4 P0.12;
G0 X-58.541 Y394.755;
G4 P0;
M40 S0;
G4 P0.12;
G1 X-46.995 Y383.209 F5000;
G4 P0;
M40 S30;
G4 P0.12;
G0 X-50.061 Y382.348;
G4 P0;
M40 S0;
G4 P0.12;
G1 X-50.061 Y389.417 F5000;
G4 P0;
M40 S30;
G4 P0.12;
G0 X-45.535 Y389.417;
G4 P0;
M40 S0;
G4 P0.12;
G1 X-45.535 Y387.140 F5000;
G4 P0;
M40 S30;
G4 P0.12;
G0 X-46.916 Y378.800;
G4 P0;
M40 S0;
G4 P0.12;
G1 X-40.389 Y372.274 F5000;
G4 P0;
M40 S30;
G4 P0.12;
G0 X-42.332 Y371.486;
G4 P0;
M40 S0;
G4 P0.12;
G1 X-20.519 Y371.486 F5000;
G4 P0;
M40 S30;
G4 P0.12;
G0 X-18.201 Y371.946;
G4 P0;
M40 S0;
G4 P0.12;
G1 X-20.224 Y373.970 F5000;
G4 P0;
M40 S30;
G4 P0.12;
G0 X-11.800 Y381.155;
G4 P0;
M40 S0;
G4 P0.12;
G1 X-11.368 Y380.723 F5000;
G4 P0;
M40 S30;
G4 P0.12;
G0 X-18.720 Y385.783;
G4 P0;
M40 S0;
G4 P0.12;
G1 X-18.720 Y389.604 F5000;
G4 P0;
M40 S30;
G4 P0.12;
G0 X-6.549 Y398.455;
G4 P0;
M40 S0;
G4 P0.12;
G1 X-5.387 Y398.455 F5000;
G4 P0;
M40 S30;
G4 P0.12;
G0 X-5.745 Y398.394;
G4 P0;
M40 S0;
G4 P0.12;
G1 X-5.745 Y397.232 F5000;
G4 P0;
M40 S30;
G4 P0.12;
G0 X4.635 Y384.378;
G4 P0;
M40 S0;
G4 P0.12;
G1 X4.635 Y370.415 F5000;
G4 P0;
M40 S30;
G4 P0.12;
G0 X2.340 Y368.507;
G4 P0;
M40 S0;
G4 P0.12;
G1 X4.194 Y366.652 F5000;
G4 P0;
M40 S30;
G4 P0.12;
G0 X-4.337 Y366.976;
G4 P0;
M40 S0;
G4 P0.12;
G1 X-4.337 Y365.125 F5000;
G4 P0;
M40 S30;
G4 P0.12;
G0 X-8.206 Y368.048;
G4 P0;
M40 S0;
G4 P0.12;
G1 X-8.206 Y351.481 F5000;
G4 P0;
M40 S30;
G4 P0.12;
G0 X-9.474 Y351.393;
G4 P0;
M40 S0;
G4 P0.12;
G1 X-20.519 Y351.393 F5000;
G4 P0;
M40 S30;
G4 P0.12;
G0 X-18.634 Y350.518;
G4 P0;
M40 S0;
G4 P0.12;
G1 X-23.571 Y355.455 F5000;
G4 P0;
M40 S30;
G4 P0.12;
G0 X-20.243 Y361.155;
G4 P0;
M40 S0;
G4 P0.12;
G1 X-14.996 Y361.155 F5000;
G4 P0;
M40 S30;
G4 P0.12;
G0 X-12.240 Y357.637;
G4 P0;
M40 S0;
G4 P0.12;
G1 X-8.530 Y353.928 F5000;
G4 P0;
M40 S30;
G4 P0.12;
G0 X-15.260 Y342.998;
G4 P0;
M40 S0;
G4 P0.12;
G1 X-15.260 Y341.161 F5000;
G4 P0;
M40 S30;
G4 P0.12;
G0 X-10.070 Y340.500;
G4 P0;
M40 S0;
G4 P0.12;
G1 X-9.637 Y340.067 F5000;
G4 P0;
M40 S30;
G4 P0.12;
G0 X-7.077 Y328.077;
G4 P0;
M40 S0;
G4 P0.12;
G1 X-2.398 Y328.077 F5000;
G4 P0;
M40 S30;
G4 P0.12;
G0 X2.983 Y335.310;
G4 P0;
M40 S0;
G4 P0.12;
G1 X4.464 Y335.310 F5000;
G1 X4.635 Y333.751 F5000;
G4 P0;
M40 S30;
G4 P0.12;
G0 X4.635 Y321.344;
G4 P0;
M40 S0;
G4 P0.12;
G1 X4.635 Y318.948 F5000;
G4 P0;
M40 S30;
G4 P0.12;
G0 X-7.117 Y307.630;
G4 P0;
M40 S0;
G4 P0.12;
G1 X-8.279 Y307.630 F5000;
G4 P0;
M40 S30;
G4 P0.12;
G0 X-7.475 Y307.569;
G4 P0;
M40 S0;
G4 P0.12;
G1 X-7.475 Y306.407 F5000;
G4 P0;
M40 S30;
G4 P0.12;
G0 X-3.635 Y296.280;
G4 P0;
M40 S0;
G4 P0.12;
G1 X-15.598 Y296.280 F5000;
G4 P0;
M40 S30;
G4 P0.12;
G0 X-14.762 Y296.008;
G4 P0;
M40 S0;
G4 P0.12;
G1 X-14.762 Y291.343 F5000;
G4 P0;
M40 S30;
G4 P0.12;
G0 X-5.745 Y288.600;
G4 P0;
M40 S0;
G4 P0.12;
G1 X-5.312 Y288.168 F5000;
G4 P0;
M40 S30;
G4 P0.12;
G0 X2.905 Y287.906;
G4 P0;
M40 S0;
G4 P0.12;
G1 X2.905 Y289.387 F5000;
G4 P0;
M40 S30;
G4 P0.12;
G0 X4.635 Y288.498;
G4 P0;
M40 S0;
G4 P0.12;
G1 X4.635 Y289.465 F5000;
G1 X5.319 Y288.781 F5000;
G4 P0;
M40 S30;
G4 P0.12;
G0 X4.635 Y300.235;
G4 P0;
M40 S0;
G4 P0.12;
G1 X4.635 Y302.330 F5000;
G4 P0;
M40 S30;
G4 P0.12;
G0 X-32.097 Y298.980;
G4 P0;
M40 S0;
G4 P0.12;
G1 X-35.002 Y298.980 F5000;
G4 P0;
M40 S30;
G4 P0.12;
G0 X-39.041 Y312.787;
G4 P0;
M40 S0;
G4 P0.12;
G1 X-39.041 Y316.358 F5000;
G4 P0;
M40 S30;
G4 P0.12;
G0 X-36.756 Y314.299;
G4 P0;
M40 S0;
G4 P0.12;
G1 X-41.940 Y319.483 F5000;
G4 P0;
M40 S30;
G4 P0.12;
G0 X-41.210 Y327.423;
G4 P0;
M40 S0;
G4 P0.12;
G1 X-41.210 Y328.390 F5000;
G1 X-40.526 Y327.706 F5000;
G4 P0;
M40 S30;
G4 P0.12;
G0 X-48.820 Y339.701;
G4 P0;
M40 S0;
G4 P0.12;
G1 X-48.820 Y342.957 F5000;
G4 P0;
M40 S30;
G4 P0.12;
G0 X-40.267 Y349.150;
G4 P0;
M40 S0;
G4 P0.12;
G1 X-38.786 Y349.150 F5000;
G4 P0;
M40 S30;
G4 P0.12;
G0 X-42.940 Y353.043;
G4 P0;
M40 S0;
G4 P0.12;
G1 X-42.940 Y355.097 F5000;
G4 P0;
M40 S30;
G4 P0.12;
G0 X-43.373 Y355.205;
G4 P0;
M40 S0;
G4 P0.12;
G1 X-45.427 Y355.205 F5000;
G4 P0;
M40 S30;
G4 P0.12;
G0 X-49.860 Y357.967;
G4 P0;
M40 S0;
G4 P0.12;
G1 X-49.860 Y359.942 F5000;
G4 P0;
M40 S30;
G4 P0.12;
G0 X-53.629 Y361.969;
G4 P0;
M40 S0;
G4 P0.12;
G1 X-53.629 Y355.887 F5000;
G4 P0;
M40 S30;
G4 P0.12;
G0 X-59.389 Y357.759;
G4 P0;
M40 S0;
G4 P0.12;
G1 X-59.389 Y353.808 F5000;
G4 P0;
M40 S30;
G4 P0.12;
G0 X-67.186 Y353.600;
G4 P0;
M40 S0;
G4 P0.12;
G1 X-67.186 Y349.650 F5000;
G4 P0;
M40 S30;
G4 P0.12;
G0 X-74.154 Y346.162;
G4 P0;
M40 S0;
G4 P0.12;
G1 X-74.154 Y171.818 F5000;
G4 P0;
M40 S30;
G4 P0.12;
G0 X-71.758 Y170.390;
G4 P0;
M40 S0;
G4 P0.12;
G1 X-240.603 Y170.390 F5000;
G4 P0;
M40 S30;
G4 P0.12;
G0 X-243.227 Y174.536;
G4 P0;
M40 S0;
G4 P0.12;
G1 X-243.227 Y176.834 F5000;
G4 P0;
M40 S30;
G4 P0.12;
G0 X-243.227 Y181.102;
G4 P0;
M40 S0;
G4 P0.12;
G1 X-243.227 Y176.834 F5000;
G1 X-265.808 Y176.792 F5000;
G4 P0;
M40 S30;
G4 P0.12;
G0 X-256.064 Y179.611;
G4 P0;
M40 S0;
G4 P0.12;
G1 X-256.064 Y166.535 F5000;
G4 P0;
M40 S30;
G4 P0.12;
G0 X-276.295 Y155.247;
G4 P0;
M40 S0;
G4 P0.12;
G1 X-276.295 Y142.694 F5000;
G4 P0;
M40 S30;
G4 P0.12;
G0 X-272.583 Y142.977;
G4 P0;
M40 S0;
G4 P0.12;
G1 X-281.094 Y142.977 F5000;
G4 P0;
M40 S30;
G4 P0.12;
G0 X-286.176 Y150.200;
G4 P0;
M40 S0;
G4 P0.12;
G1 X-287.657 Y150.200 F5000;
G4 P0;
M40 S30;
G4 P0.12;
G0 X-292.060 Y149.257;
G4 P0;
M40 S0;
G4 P0.12;
G1 X-292.060 Y147.776 F5000;
G4 P0;
M40 S30;
G4 P0.12;
G0 X-291.761 Y138.837;
G4 P0;
M40 S0;
G4 P0.12;
G1 X-288.828 Y135.903 F5000;
G4 P0;
M40 S30;
G4 P0.12;
G0 X-291.244 Y132.734;
G4 P0;
M40 S0;
G4 P0.12;
G1 X-294.573 Y136.063 F5000;
G4 P0;
M40 S30;
G4 P0.12;
G0 X-285.546 Y127.036;
G4 P0;
M40 S0;
G4 P0.12;
G1 X-279.961 Y121.451 F5000;
G4 P0;
M40 S30;
G4 P0.12;
G0 X-283.626 Y121.417;
G4 P0;
M40 S0;
G4 P0.12;
G1 X-283.626 Y127.800 F5000;
G4 P0;
M40 S30;
G4 P0.12;
G0 X-282.734 Y129.810;
G4 P0;
M40 S0;
G4 P0.12;
G1 X-278.296 Y125.372 F5000;
G4 P0;
M40 S30;
G4 P0.12;
G0 X-277.689 Y130.903;
G4 P0;
M40 S0;
G4 P0.12;
G1 X-279.249 Y132.462 F5000;
G4 P0;
M40 S30;
G4 P0.12;
G0 X-297.141 Y122.411;
G4 P0;
M40 S0;
G4 P0.12;
G1 X-288.272 Y113.542 F5000;
G4 P0;
M40 S30;
G4 P0.12;
G0 X-298.220 Y116.092;
G4 P0;
M40 S0;
G4 P0.12;
G1 X-298.220 Y109.978 F5000;
G4 P0;
M40 S30;
G4 P0.12;
G0 X-296.729 Y93.832;
G4 P0;
M40 S0;
G4 P0.12;
G1 X-296.729 Y82.323 F5000;
G4 P0;
M40 S30;
G4 P0.12;
G0 X-292.012 Y88.785;
G4 P0;
M40 S0;
G4 P0.12;
G1 X-291.093 Y88.785 F5000;
G4 P0;
M40 S30;
G4 P0.12;
G0 X-278.701 Y99.632;
G4 P0;
M40 S0;
G4 P0.12;
G1 X-278.701 Y104.237 F5000;
G4 P0;
M40 S30;
G4 P0.12;
G0 X-281.606 Y104.219;
G4 P0;
M40 S0;
G4 P0.12;
G1 X-277.665 Y100.278 F5000;
G4 P0;
M40 S30;
G4 P0.12;
G0 X-275.426 Y100.577;
G4 P0;
M40 S0;
G4 P0.12;
G1 X-275.426 Y104.261 F5000;
G4 P0;
M40 S30;
G4 P0.12;
G0 X-272.940 Y104.355;
G4 P0;
M40 S0;
G4 P0.12;
G1 X-282.291 Y104.355 F5000;
G4 P0;
M40 S30;
G4 P0.12;
G0 X-255.604 Y90.515;
G4 P0;
M40 S0;
G4 P0.12;
G1 X-253.208 Y90.515 F5000;
G4 P0;
M40 S30;
G4 P0.12;
G0 X-251.847 Y95.772;
G4 P0;
M40 S0;
G4 P0.12;
G1 X-246.149 Y90.074 F5000;
G1 X-85.686 Y90.063 F5000;
G4 P0;
M40 S30;
G4 P0.12;
G0 X-77.804 Y89.461;
G4 P0;
M40 S0;
G4 P0.12;
G1 X-73.404 Y85.061 F5000;
G4 P0;
M40 S30;
G4 P0.12;
G0 X-65.710 Y83.875;
G4 P0;
M40 S0;
G4 P0.12;
G1 X-64.636 Y82.801 F5000;
G4 P0;
M40 S30;
G4 P0.12;
G0 X-65.714 Y79.465;
G4 P0;
M40 S0;
G4 P0.12;
G1 X-61.196 Y74.947 F5000;
G4 P0;
M40 S30;
G4 P0.12;
G0 X-55.483 Y82.297;
G4 P0;
M40 S0;
G4 P0.12;
G1 X-55.915 Y82.730 F5000;
G4 P0;
M40 S30;
G4 P0.12;
G0 X-48.680 Y86.361;
G4 P0;
M40 S0;
G4 P0.12;
G1 X-37.092 Y86.361 F5000;
G4 P0;
M40 S30;
G4 P0.12;
G0 X-33.425 Y79.209;
G4 P0;
M40 S0;
G4 P0.12;
G1 X-33.425 Y78.047 F5000;
G4 P0;
M40 S30;
G4 P0.12;
G0 X-48.130 Y74.019;
G4 P0;
M40 S0;
G4 P0.12;
G1 X-48.130 Y72.857 F5000;
G4 P0;
M40 S30;
G4 P0.12;
G0 X-43.241 Y51.861;
G4 P0;
M40 S0;
G4 P0.12;
G1 X-43.241 Y45.973 F5000;
G4 P0;
M40 S30;
G4 P0.12;
G0 X-45.633 Y43.681;
G4 P0;
M40 S0;
G4 P0.12;
G1 X-53.325 Y51.374 F5000;
G4 P0;
M40 S30;
G4 P0.12;
G0 X-60.113 Y50.624;
G4 P0;
M40 S0;
G4 P0.12;
G1 X-46.967 Y37.478 F5000;
G4 P0;
M40 S30;
G4 P0.12;
G0 X-53.787 Y39.776;
G4 P0;
M40 S0;
G4 P0.12;
G1 X-53.787 Y44.486 F5000;
G4 P0;
M40 S30;
G4 P0.12;
G0 X-67.592 Y36.453;
G4 P0;
M40 S0;
G4 P0.12;
G1 X-68.025 Y36.885 F5000;
G4 P0;
M40 S30;
G4 P0.12;
G0 X-83.163 Y23.477;
G4 P0;
M40 S0;
G4 P0.12;
G1 X-83.595 Y23.910 F5000;
G4 P0;
M40 S30;
G4 P0.12;
G0 X-90.449 Y24.775;
G4 P0;
M40 S0;
G4 P0.12;
G1 X-90.449 Y18.288 F5000;
G4 P0;
M40 S30;
G4 P0.12;
G0 X-92.245 Y27.636;
G4 P0;
M40 S0;
G4 P0.12;
G1 X-92.245 Y29.849 F5000;
G4 P0;
M40 S30;
G4 P0.12;
G0 X-99.894 Y49.376;
G4 P0;
M40 S0;
G4 P0.12;
G1 X-99.894 Y56.359 F5000;
G4 P0;
M40 S30;
G4 P0.12;
G0 X-97.793 Y57.782;
G4 P0;
M40 S0;
G4 P0.12;
G1 X-94.906 Y54.895 F5000;
G4 P0;
M40 S30;
G4 P0.12;
G0 X-96.086 Y55.629;
G4 P0;
M40 S0;
G4 P0.12;
G1 X-88.924 Y55.629 F5000;
G4 P0;
M40 S30;
G4 P0.12;
G0 X-97.994 Y68.890;
G4 P0;
M40 S0;
G4 P0.12;
G1 X-100.750 Y68.890 F5000;
G4 P0;
M40 S30;
G4 P0.12;
G0 X-109.842 Y84.201;
G4 P0;
M40 S0;
G4 P0.12;
G1 X-288.807 Y263.165 F5000;
G4 P0;
M40 S30;
G4 P0.12;
G0 X-288.361 Y260.967;
G4 P0;
M40 S0;
G4 P0.12;
G1 X-285.159 Y260.967 F5000;
G4 P0;
M40 S30;
G4 P0.12;
G0 X-291.195 Y268.347;
G4 P0;
M40 S0;
G4 P0.12;
G1 X-291.195 Y269.509 F5000;
G4 P0;
M40 S30;
G4 P0.12;
G0 X-290.837 Y269.570;
G4 P0;
M40 S0;
G4 P0.12;
G1 X-291.999 Y269.570 F5000;
G4 P0;
M40 S30;
G4 P0.12;
G0 X-290.364 Y249.742;
G4 P0;
M40 S0;
G4 P0.12;
G1 X-49.337 Y249.742 F5000;
G1 X-44.641 Y244.941 F5000;
G4 P0;
M40 S30;
G4 P0.12;
G0 X-49.574 Y249.874;
G4 P0;
M40 S0;
G4 P0.12;
G1 X-201.343 Y401.642 F5000;
G4 P0;
M40 S30;
G4 P0.12;
G0 X-201.796 Y401.568;
G4 P0;
M40 S0;
G4 P0.12;
G1 X-133.042 Y401.568 F5000;
G4 P0;
M40 S30;
G4 P0.12;
G0 X-129.043 Y393.711;
G4 P0;
M40 S0;
G4 P0.12;
G1 X-129.043 Y84.646 F5000;
G4 P0;
M40 S30;
G4 P0.12;
G0 X-132.900 Y78.289;
G4 P0;
M40 S0;
G4 P0.12;
G1 X-132.900 Y76.076 F5000;
G4 P0;
M40 S30;
G4 P0.12;
G0 X-121.292 Y79.299;
G4 P0;
M40 S0;
G4 P0.12;
G1 X-229.435 Y187.443 F5000;
G4 P0;
M40 S30;
G4 P0.12;
G0 X-228.451 Y187.091;
G4 P0;
M40 S0;
G4 P0.12;
G1 X-56.089 Y187.091 F5000;
G4 P0;
M40 S30;
G4 P0.12;
G0 X-55.251 Y186.891;
G4 P0;
M40 S0;
G4 P0.12;
G1 X-215.902 Y347.542 F5000;
G4 P0;
M40 S30;
G4 P0.12;
G0 X-221.073 Y338.877;
G4 P0;
M40 S0;
G4 P0.12;
G1 X-221.073 Y171.999 F5000;
G4 P0;
M40 S30;
G4 P0.12;
G0 X-231.305 Y181.102;
G4 P0;
M40 S0;
G4 P0.12;
G1 X-231.305 Y187.504 F5000;
G4 P0;
M40 S30;
G4 P0.12;
G0 X-207.544 Y176.792;
G4 P0;
M40 S0;
G4 P0.12;
G1 X-81.468 Y176.792 F5000;
G4 P0;
M40 S30;
G4 P0.12;
G0 X-80.247 Y167.230;
G4 P0;
M40 S0;
G4 P0.12;
G1 X-70.688 Y157.670 F5000;
G4 P0;
M40 S30;
G4 P0.12;
G0 X-81.349 Y155.799;
G4 P0;
M40 S0;
G4 P0.12;
G1 X-271.872 Y346.323 F5000;
G4 P0;
M40 S30;
G4 P0.12;
G0 X-277.949 Y343.678;
G4 P0;
M40 S0;
G4 P0.12;
G1 X-277.949 Y323.201 F5000;
G4 P0;
M40 S30;
G4 P0.12;
G0 X-275.310 Y328.561;
G4 P0;
M40 S0;
G4 P0.12;
G1 X-58.626 Y328.561 F5000;
G4 P0;
M40 S30;
G4 P0.12;
G0 X-63.845 Y317.985;
G4 P0;
M40 S0;
G4 P0.12;
G1 X-63.845 Y177.222 F5000;
G4 P0;
M40 S30;
G4 P0.12;
G0 X-59.375 Y175.285;
G4 P0;
M40 S0;
G4 P0.12;
G1 X-58.942 Y174.852 F5000;
G4 P0;
M40 S30;
G4 P0.12;
G0 X-58.898 Y183.480;
G4 P0;
M40 S0;
G4 P0.12;
G1 X-250.112 Y374.695 F5000;
G4 P0;
M40 S30;
G4 P0.12;
G0 X-261.287 Y374.926;
G4 P0;
M40 S0;
G4 P0.12;
G1 X-261.287 Y286.404 F5000;
G4 P0;
M40 S30;
G4 P0.12;
G0 X-272.848 Y302.383;
G4 P0;
M40 S0;
G4 P0.12;
G1 X-57.394 Y302.383 F5000;
G4 P0;
M40 S30;
G4 P0.12;
G0 X-61.913 Y313.564;
G4 P0;
M40 S0;
G4 P0.12;
G1 X-150.130 Y401.781 F5000;
G4 P0;
M40 S30;
G4 P0.12;
G0 X-144.541 Y395.245;
G4 P0;
M40 S0;
G4 P0.12;
G1 X-144.541 Y87.586 F5000;
G4 P0;
M40 S30;
G4 P0.12;
G0 X-148.364 Y76.520;
G4 P0;
M40 S0;
G4 P0.12;
G1 X-166.388 Y76.520 F5000;
G4 P0;
M40 S30;
G4 P0.12;
G0 X-173.230 Y80.420;
G4 P0;
M40 S0;
G4 P0.12;
G1 X-173.230 Y408.139 F5000;
G4 P0;
M40 S30;
G4 P0.12;
G0 X-168.934 Y415.196;
G4 P0;
M40 S0;
G4 P0.12;
G1 X-164.396 Y410.657 F5000;
G4 P0;
M40 S30;
G4 P0.12;
G0 X-160.454 Y410.565;
G4 P0;
M40 S0;
G4 P0.12;
G1 X-158.058 Y410.565 F5000;
G4 P0;
M40 S30;
G4 P0.12;
G0 X-158.944 Y403.121;
G4 P0;
M40 S0;
G4 P0.12;
G1 X-158.944 Y58.396 F5000;
G4 P0;
M40 S30;
G4 P0.12;
G0 X-168.438 Y62.835;
G4 P0;
M40 S0;
G4 P0.12;
G1 X-170.834 Y62.835 F5000;
G4 P0;
M40 S30;
G4 P0.12;
G0 X-171.825 Y65.601;
G4 P0;
M40 S0;
G4 P0.12;
G1 X-171.825 Y67.082 F5000;
G4 P0;
M40 S30;
G4 P0.12;
G0 X-177.067 Y68.363;
G4 P0;
M40 S0;
G4 P0.12;
G1 X-179.424 Y68.363 F5000;
G4 P0;
M40 S30;
G4 P0.12;
G0 X-177.776 Y63.686;
G4 P0;
M40 S0;
G4 P0.12;
G1 X-196.804 Y63.686 F5000;
G4 P0;
M40 S30;
G4 P0.12;
G0 X-196.235 Y64.909;
G4 P0;
M40 S0;
G4 P0.12;
G1 X-196.235 Y57.468 F5000;
G4 P0;
M40 S30;
G4 P0.12;
G0 X-196.910 Y59.926;
G4 P0;
M40 S0;
G4 P0.12;
G1 X-182.028 Y59.926 F5000;
G4 P0;
M40 S30;
G4 P0.12;
G0 X-194.013 Y59.462;
G4 P0;
M40 S0;
G4 P0.12;
G1 X-196.644 Y62.093 F5000;
G4 P0;
M40 S30;
G4 P0.12;
G0 X-194.306 Y68.363;
G4 P0;
M40 S0;
G4 P0.12;
G1 X-191.949 Y68.363 F5000;
G4 P0;
M40 S30;
G4 P0.12;
G0 X-180.704 Y78.585;
G4 P0;
M40 S0;
G4 P0.12;
G1 X-228.068 Y125.950 F5000;
G4 P0;
M40 S30;
G4 P0.12;
G0 X-231.305 Y121.842;
G4 P0;
M40 S0;
G4 P0.12;
G1 X-231.305 Y79.326 F5000;
G4 P0;
M40 S30;
G4 P0.12;
G0 X-237.074 Y80.999;
G4 P0;
M40 S0;
G4 P0.12;
G1 X-245.938 Y89.863 F5000;
G4 P0;
M40 S30;
G4 P0.12;
G0 X-243.227 Y95.741;
G4 P0;
M40 S0;
G4 P0.12;
G1 X-243.227 Y76.699 F5000;
G4 P0;
M40 S30;
G4 P0.12;
G0 X-243.747 Y79.259;
G4 P0;
M40 S0;
G4 P0.12;
G1 X-239.684 Y75.196 F5000;
G4 P0;
M40 S30;
G4 P0.12;
G0 X-237.794 Y78.231;
G4 P0;
M40 S0;
G4 P0.12;
G1 X-237.794 Y124.605 F5000;
G4 P0;
M40 S30;
G4 P0.12;
G0 X-239.196 Y126.793;
G4 P0;
M40 S0;
G4 P0.12;
G1 X-88.173 Y126.793 F5000;
G4 P0;
M40 S30;
G4 P0.12;
G0 X-89.686 Y128.175;
G4 P0;
M40 S0;
G4 P0.12;
G1 X-89.686 Y109.827 F5000;
G4 P0;
M40 S30;
G4 P0.12;
G0 X-97.067 Y110.837;
G4 P0;
M40 S0;
G4 P0.12;
G1 X-97.067 Y88.531 F5000;
G4 P0;
M40 S30;
G4 P0.12;
G0 X-106.065 Y87.491;
G4 P0;
M40 S0;
G4 P0.12;
G1 X-106.065 Y387.727 F5000;
G4 P0;
M40 S30;
G4 P0.12;
G0 X-111.726 Y394.031;
G4 P0;
M40 S0;
G4 P0.12;
G1 X-241.623 Y394.031 F5000;
G1 X-252.940 Y405.451 F5000;
G4 P0;
M40 S30;
G4 P0.12;
G0 X-245.511 Y407.369;
G4 P0;
M40 S0;
G4 P0.12;
G1 X-243.274 Y405.132 F5000;
G4 P0;
M40 S30;
G4 P0.12;
G0 X-249.148 Y417.485;
G4 P0;
M40 S0;
G4 P0.12;
G1 X-252.936 Y417.485 F5000;
G4 P0;
M40 S30;
G4 P0.12;
G0 X-251.330 Y426.937;
G4 P0;
M40 S0;
G4 P0.12;
G1 X-258.877 Y426.937 F5000;
G4 P0;
M40 S30;
G4 P0.12;
G0 X-252.270 Y440.443;
G4 P0;
M40 S0;
G4 P0.12;
G1 X-252.270 Y445.047 F5000;
G4 P0;
M40 S30;
G4 P0.12;
G0 X-252.441 Y447.760;
G4 P0;
M40 S0;
G4 P0.12;
G1 X-253.922 Y447.760 F5000;
G4 P0;
M40 S30;
G4 P0.12;
G0 X-261.833 Y451.829;
G4 P0;
M40 S0;
G4 P0.12;
G1 X-261.833 Y456.059 F5000;
G4 P0;
M40 S30;
G4 P0.12;
G0 X-268.705 Y455.341;
G4 P0;
M40 S0;
G4 P0.12;
G1 X-268.705 Y457.178 F5000;
G4 P0;
M40 S30;
G4 P0.12;
G0 X-263.389 Y468.520;
G4 P0;
M40 S0;
G4 P0.12;
G1 X-260.993 Y468.520 F5000;
G4 P0;
M40 S30;
G4 P0.12;
G0 X-257.412 Y476.305;
G4 P0;
M40 S0;
G4 P0.12;
G1 X-256.493 Y476.305 F5000;
G4 P0;
M40 S30;
G4 P0.12;
G0 X-250.205 Y474.598;
G4 P0;
M40 S0;
G4 P0.12;
G1 X-246.789 Y471.181 F5000;
G4 P0;
M40 S30;
G4 P0.12;
G0 X-241.868 Y472.396;
G4 P0;
M40 S0;
G4 P0.12;
G1 X-241.868 Y487.400 F5000;
G4 P0;
M40 S30;
G4 P0.12;
G0 X-245.524 Y478.220;
G4 P0;
M40 S0;
G4 P0.12;
G1 X-220.094 Y478.220 F5000;
G4 P0;
M40 S30;
G4 P0.12;
G0 X-226.346 Y472.444;
G4 P0;
M40 S0;
G4 P0.12;
G1 X-232.339 Y478.438 F5000;
G4 P0;
M40 S30;
G4 P0.12;
G0 X-218.498 Y492.194;
G4 P0;
M40 S0;
G4 P0.12;
G1 X-217.136 Y490.832 F5000;
G4 P0;
M40 S30;
G4 P0.12;
G0 X-197.775 Y486.563;
G4 P0;
M40 S0;
G4 P0.12;
G1 X-197.775 Y484.238 F5000;
G4 P0;
M40 S30;
G4 P0.12;
G0 X-190.451 Y489.961;
G4 P0;
M40 S0;
G4 P0.12;
G1 X-187.496 Y487.006 F5000;
G4 P0;
M40 S30;
G4 P0.12;
G0 X-179.964 Y487.530;
G4 P0;
M40 S0;
G4 P0.12;
G1 X-174.183 Y481.750 F5000;
G4 P0;
M40 S30;
G4 P0.12;
G0 X-169.085 Y479.286;
G4 P0;
M40 S0;
G4 P0.12;
G1 X-163.411 Y479.286 F5000;
G4 P0;
M40 S30;
G4 P0.12;
G0 X-166.321 Y484.955;
G4 P0;
M40 S0;
G4 P0.12;
G1 X-169.085 Y484.955 F5000;
G4 P0;
M40 S30;
G4 P0.12;
G0 X-174.619 Y489.055;
G4 P0;
M40 S0;
G4 P0.12;
G1 X-179.160 Y489.055 F5000;
G4 P0;
M40 S30;
G4 P0.12;
G0 X-180.347 Y492.538;
G4 P0;
M40 S0;
G4 P0.12;
G1 X-180.347 Y503.019 F5000;
G4 P0;
M40 S30;
G4 P0.12;
G0 X-180.637 Y499.011;
G4 P0;
M40 S0;
G4 P0.12;
G1 X-174.708 Y493.082 F5000;
G4 P0;
M40 S30;
G4 P0.12;
G0 X-165.722 Y494.470;
G4 P0;
M40 S0;
G4 P0.12;
G1 X-164.803 Y494.470 F5000;
G4 P0;
M40 S30;
G4 P0.12;
G0 X-168.962 Y507.231;
G4 P0;
M40 S0;
G4 P0.12;
G1 X-174.802 Y507.231 F5000;
G4 P0;
M40 S30;
G4 P0.12;
G0 X-183.292 Y513.500;
G4 P0;
M40 S0;
G4 P0.12;
G1 X-187.190 Y513.500 F5000;
G4 P0;
M40 S30;
G4 P0.12;
G0 X-189.990 Y506.660;
G4 P0;
M40 S0;
G4 P0.12;
G1 X-189.990 Y505.055 F5000;
G4 P0;
M40 S30;
G4 P0.12;
G0 X-193.244 Y503.113;
G4 P0;
M40 S0;
G4 P0.12;
G1 X-193.244 Y498.299 F5000;
G4 P0;
M40 S30;
G4 P0.12;
G0 X-189.690 Y474.275;
G4 P0;
M40 S0;
G4 P0.12;
G1 X-186.976 Y471.561 F5000;
G4 P0;
M40 S30;
G4 P0.12;
G0 X-166.635 Y472.743;
G4 P0;
M40 S0;
G4 P0.12;
G1 X-166.635 Y473.710 F5000;
G1 X-165.951 Y473.026 F5000;
G4 P0;
M40 S30;
G4 P0.12;
G0 X-165.709 Y462.465;
G4 P0;
M40 S0;
G4 P0.12;
G1 X-164.547 Y462.465 F5000;
G4 P0;
M40 S30;
G4 P0.12;
G0 X-159.715 Y452.757;
G4 P0;
M40 S0;
G4 P0.12;
G1 X-159.715 Y449.082 F5000;
G4 P0;
M40 S30;
G4 P0.12;
G0 X-154.525 Y451.118;
G4 P0;
M40 S0;
G4 P0.12;
G1 X-154.525 Y452.085 F5000;
G1 X-153.841 Y451.401 F5000;
G4 P0;
M40 S30;
G4 P0.12;
G0 X-150.673 Y456.325;
G4 P0;
M40 S0;
G4 P0.12;
G1 X-150.673 Y477.838 F5000;
G4 P0;
M40 S30;
G4 P0.12;
G0 X-151.916 Y472.269;
G4 P0;
M40 S0;
G4 P0.12;
G1 X-144.056 Y472.269 F5000;
G4 P0;
M40 S30;
G4 P0.12;
G0 X-152.887 Y458.466;
G4 P0;
M40 S0;
G4 P0.12;
G1 X-146.484 Y452.064 F5000;
G4 P0;
M40 S30;
G4 P0.12;
G0 X-140.685 Y448.625;
G4 P0;
M40 S0;
G4 P0.12;
G1 X-140.252 Y448.192 F5000;
G4 P0;
M40 S30;
G4 P0.12;
G0 X-136.585 Y445.399;
G4 P0;
M40 S0;
G4 P0.12;
G1 X-129.818 Y438.632 F5000;
G4 P0;
M40 S30;
G4 P0.12;
G0 X-129.425 Y439.801;
G4 P0;
M40 S0;
G4 P0.12;
G1 X-129.425 Y445.633 F5000;
G4 P0;
M40 S30;
G4 P0.12;
G0 X-125.600 Y441.438;
G4 P0;
M40 S0;
G4 P0.12;
G1 X-141.550 Y441.438 F5000;
G4 P0;
M40 S30;
G4 P0.12;
G0 X-140.374 Y437.502;
G4 P0;
M40 S0;
G4 P0.12;
G1 X-133.245 Y430.372 F5000;
G4 P0;
M40 S30;
G4 P0.12;
G0 X-129.324 Y431.325;
G4 P0;
M40 S0;
G4 P0.12;
G1 X-127.111 Y431.325 F5000;
G4 P0;
M40 S30;
G4 P0.12;
G0 X-122.520 Y437.887;
G4 P0;
M40 S0;
G4 P0.12;
G1 X-122.520 Y439.049 F5000;
G4 P0;
M40 S30;
G4 P0.12;
G0 X-122.162 Y439.110;
G4 P0;
M40 S0;
G4 P0.12;
G1 X-123.324 Y439.110 F5000;
G4 P0;
M40 S30;
G4 P0.12;
G0 X-122.008 Y446.443;
G4 P0;
M40 S0;
G4 P0.12;
G1 X-126.025 Y450.461 F5000;
G4 P0;
M40 S30;
G4 P0.12;
G0 X-124.936 Y454.652;
G4 P0;
M40 S0;
G4 P0.12;
G1 X-116.548 Y446.263 F5000;
G4 P0;
M40 S30;
G4 P0.12;
G0 X-125.980 Y462.107;
G4 P0;
M40 S0;
G4 P0.12;
G1 X-125.980 Y463.269 F5000;
G4 P0;
M40 S30;
G4 P0.12;
G0 X-125.622 Y463.330;
G4 P0;
M40 S0;
G4 P0.12;
G1 X-126.784 Y463.330 F5000;
G4 P0;
M40 S30;
G4 P0.12;
G0 X-122.550 Y476.212;
G4 P0;
M40 S0;
G4 P0.12;
G1 X-122.550 Y494.856 F5000;
G4 P0;
M40 S30;
G4 P0.12;
G0 X-127.489 Y495.961;
G4 P0;
M40 S0;
G4 P0.12;
G1 X-105.396 Y495.961 F5000;
G4 P0;
M40 S30;
G4 P0.12;
G0 X-106.790 Y491.285;
G4 P0;
M40 S0;
G4 P0.12;
G1 X-111.734 Y496.228 F5000;
G4 P0;
M40 S30;
G4 P0.12;
G0 X-112.145 Y496.627;
G4 P0;
M40 S0;
G4 P0.12;
G1 X-112.145 Y481.806 F5000;
G4 P0;
M40 S30;
G4 P0.12;
G0 X-110.989 Y486.237;
G4 P0;
M40 S0;
G4 P0.12;
G1 X-124.972 Y486.237 F5000;
G4 P0;
M40 S30;
G4 P0.12;
G0 X-132.900 Y487.278;
G4 P0;
M40 S0;
G4 P0.12;
G1 X-132.900 Y488.749 F5000;
G4 P0;
M40 S30;
G4 P0.12;
G0 X-135.296 Y487.876;
G4 P0;
M40 S0;
G4 P0.12;
G1 X-136.466 Y489.045 F5000;
G4 P0;
M40 S30;
G4 P0.12;
G0 X-142.683 Y495.263;
G4 P0;
M40 S0;
G4 P0.12;
G1 X-146.315 Y498.895 F5000;
G4 P0;
M40 S30;
G4 P0.12;
G0 X-138.828 Y504.809;
G4 P0;
M40 S0;
G4 P0.12;
G1 X-128.786 Y504.809 F5000;
G4 P0;
M40 S30;
G4 P0.12;
G0 X-126.970 Y499.950;
G4 P0;
M40 S0;
G4 P0.12;
G1 X-130.865 Y499.950 F5000;
G4 P0;
M40 S30;
G4 P0.12;
G0 X-137.106 Y503.331;
G4 P0;
M40 S0;
G4 P0.12;
G1 X-137.106 Y505.746 F5000;
G4 P0;
M40 S30;
G4 P0.12;
G0 X-151.930 Y509.612;
G4 P0;
M40 S0;
G4 P0.12;
G1 X-151.930 Y511.459 F5000;
G4 P0;
M40 S30;
G4 P0.12;
G0 X-113.870 Y511.668;
G4 P0;
M40 S0;
G4 P0.12;
G1 X-113.870 Y512.635 F5000;
G1 X-113.186 Y511.951 F5000;
G4 P0;
M40 S30;
G4 P0.12;
G0 X-91.319 Y511.770;
G4 P0;
M40 S0;
G4 P0.12;
G1 X-90.157 Y511.770 F5000;
G4 P0;
M40 S30;
G4 P0.12;
G0 X-90.515 Y511.709;
G4 P0;
M40 S0;
G4 P0.12;
G1 X-90.515 Y510.547 F5000;
G4 P0;
M40 S30;
G4 P0.12;
G0 X-93.975 Y491.652;
G4 P0;
M40 S0;
G4 P0.12;
G1 X-93.975 Y486.164 F5000;
G4 P0;
M40 S30;
G4 P0.12;
G0 X-90.332 Y489.933;
G4 P0;
M40 S0;
G4 P0.12;
G1 X-88.830 Y488.431 F5000;
G4 P0;
M40 S30;
G4 P0.12;
G0 X-93.472 Y475.879;
G4 P0;
M40 S0;
G4 P0.12;
G1 X-93.472 Y472.057 F5000;
G4 P0;
M40 S30;
G4 P0.12;
G0 X-97.606 Y467.455;
G4 P0;
M40 S0;
G4 P0.12;
G1 X-95.084 Y464.933 F5000;
G4 P0;
M40 S30;
G4 P0.12;
G0 X-100.030 Y458.140;
G4 P0;
M40 S0;
G4 P0.12;
G1 X-99.597 Y457.707 F5000;
G4 P0;
M40 S30;
G4 P0.12;
G0 X-97.327 Y456.410;
G4 P0;
M40 S0;
G4 P0.12;
G1 X-95.273 Y456.410 F5000;
G4 P0;
M40 S30;
G4 P0.12;
G0 X-88.503 Y450.640;
G4 P0;
M40 S0;
G4 P0.12;
G1 X-84.592 Y446.729 F5000;
G4 P0;
M40 S30;
G4 P0.12;
G0 X-69.275 Y444.194;
G4 P0;
M40 S0;
G4 P0.12;
G1 X-66.627 Y441.546 F5000;
G4 P0;
M40 S30;
G4 P0.12;
G0 X-62.970 Y435.043;
G4 P0;
M40 S0;
G4 P0.12;
G1 X-57.662 Y429.735 F5000;
G4 P0;
M40 S30;
G4 P0.12;
G0 X-51.542 Y439.110;
G4 P0;
M40 S0;
G4 P0.12;
G1 X-50.623 Y439.110 F5000;
G4 P0;
M40 S30;
G4 P0.12;
G0 X-45.535 Y444.300;
G4 P0;
M40 S0;
G4 P0.12;
G1 X-45.103 Y443.868 F5000;
G4 P0;
M40 S30;
G4 P0.12;
G0 X-39.036 Y447.332;
G4 P0;
M40 S0;
G4 P0.12;
G1 X-46.348 Y454.643 F5000;
G4 P0;
M40 S30;
G4 P0.12;
G0 X-34.734 Y451.935;
G4 P0;
M40 S0;
G4 P0.12;
G1 X-34.734 Y444.865 F5000;
G4 P0;
M40 S30;
G4 P0.12;
G0 X-29.100 Y438.137;
G4 P0;
M40 S0;
G4 P0.12;
G1 X-29.100 Y436.082 F5000;
G4 P0;
M40 S30;
G4 P0.12;
G0 X-24.775 Y436.082;
G4 P0;
M40 S0;
G4 P0.12;
G1 X-24.775 Y438.137 F5000;
G4 P0;
M40 S30;
G4 P0.12;
G0 X-21.125 Y453.288;
G4 P0;
M40 S0;
G4 P0.12;
G1 X-21.125 Y457.076 F5000;
G4 P0;
M40 S30;
G4 P0.12;
G0 X-10.874 Y454.680;
G4 P0;
M40 S0;
G4 P0.12;
G1 X-9.712 Y454.680 F5000;
G4 P0;
M40 S30;
G4 P0.12;
G0 X-10.070 Y454.619;
G4 P0;
M40 S0;
G4 P0.12;
G1 X-10.070 Y453.457 F5000;
G4 P0;
M40 S30;
G4 P0.12;
G0 X-9.528 Y463.601;
G4 P0;
M40 S0;
G4 P0.12;
G1 X-9.528 Y480.417 F5000;
G4 P0;
M40 S30;
G4 P0.12;
G0 X-3.362 Y487.797;
G4 P0;
M40 S0;
G4 P0.12;
G1 X4.399 Y480.036 F5000;
G4 P0;
M40 S30;
G4 P0.12;
G0 X4.635 Y470.855;
G4 P0;
M40 S0;
G4 P0.12;
G1 X4.635 Y465.907 F5000;
G4 P0;
M40 S30;
G4 P0.12;
G0 X1.859 Y441.886;
G4 P0;
M40 S0;
G4 P0.12;
G1 X1.175 Y442.570 F5000;
G1 X1.175 Y441.603 F5000;
G4 P0;
M40 S30;
G4 P0.12;
G0 X4.635 Y431.202;
G4 P0;
M40 S0;
G4 P0.12;
G1 X4.635 Y428.867 F5000;
G4 P0;
M40 S30;
G4 P0.12;
G0 X4.635 Y424.295;
G4 P0;
M40 S0;
G4 P0.12;
G1 X4.635 Y422.200 F5000;
G4 P0;
M40 S30;
G4 P0.12;
G0 X0.291 Y425.341;
G4 P0;
M40 S0;
G4 P0.12;
G1 X-1.968 Y427.600 F5000;
G4 P0;
M40 S30;
G4 P0.12;
G0 X-0.885 Y424.628;
G4 P0;
M40 S0;
G4 P0.12;
G1 X-13.173 Y424.628 F5000;
G4 P0;
M40 S30;
G4 P0.12;
G0 X4.635 Y414.443;
G4 P0;
M40 S0;
G4 P0.12;
G1 X4.635 Y410.909 F5000;
G4 P0;
M40 S30;
G4 P0.12;
G0 X-29.827 Y411.443;
G4 P0;
M40 S0;
G4 P0.12;
G1 X-36.778 Y418.395 F5000;
G4 P0;
M40 S30;
G4 P0.12;
G0 X-34.181 Y419.037;
G4 P0;
M40 S0;
G4 P0.12;
G1 X-34.181 Y421.372 F5000;
G4 P0;
M40 S30;
G4 P0.12;
G0 X-69.023 Y425.451;
G4 P0;
M40 S0;
G4 P0.12;
G1 X-72.385 Y428.813 F5000;
G4 P0;
M40 S30;
G4 P0.12;
G0 X-69.412 Y427.524;
G4 P0;
M40 S0;
G4 P0.12;
G1 X-69.412 Y425.147 F5000;
G4 P0;
M40 S30;
G4 P0.12;
G0 X-79.777 Y410.565;
G4 P0;
M40 S0;
G4 P0.12;
G1 X-80.939 Y410.565 F5000;
G4 P0;
M40 S30;
G4 P0.12;
G0 X-80.135 Y410.504;
G4 P0;
M40 S0;
G4 P0.12;
G1 X-80.135 Y409.342 F5000;
G4 P0;
M40 S30;
G4 P0.12;
G0 X-93.252 Y411.426;
G4 P0;
M40 S0;
G4 P0.12;
G1 X-102.270 Y411.426 F5000;
G4 P0;
M40 S30;
G4 P0.12;
G0 X-105.596 Y415.277;
G4 P0;
M40 S0;
G4 P0.12;
G1 X-112.900 Y422.581 F5000;
G4 P0;
M40 S30;
G4 P0.12;
G0 X-117.087 Y421.198;
G4 P0;
M40 S0;
G4 P0.12;
G1 X-108.381 Y412.492 F5000;
G4 P0;
M40 S30;
G4 P0.12;
G0 X-117.824 Y394.216;
G4 P0;
M40 S0;
G4 P0.12;
G1 X-117.824 Y78.505 F5000;
G4 P0;
M40 S30;
G4 P0.12;
G0 X-139.937 Y61.513;
G4 P0;
M40 S0;
G4 P0.12;
G1 X-212.213 Y133.819 F5000;
G1 X-212.213 Y147.563 F5000;
G1 X-97.067 Y147.563 F5000;
G4 P0;
M40 S30;
G4 P0.12;
G0 X-88.574 Y153.166;
G4 P0;
M40 S0;
G4 P0.12;
G1 X-214.553 Y153.166 F5000;
G4 P0;
M40 S30;
G4 P0.12;
G0 X-209.376 Y152.172;
G4 P0;
M40 S0;
G4 P0.12;
G1 X-144.374 Y87.170 F5000;
G1 X-144.541 Y61.639 F5000;
G4 P0;
M40 S30;
G4 P0.12;
G0 X-151.065 Y47.265;
G4 P0;
M40 S0;
G4 P0.12;
G1 X-150.632 Y46.833 F5000;
G4 P0;
M40 S30;
G4 P0.12;
G0 X-157.016 Y46.483;
G4 P0;
M40 S0;
G4 P0.12;
G1 X-157.016 Y29.741 F5000;
G4 P0;
M40 S30;
G4 P0.12;
G0 X-159.538 Y32.830;
G4 P0;
M40 S0;
G4 P0.12;
G1 X-174.420 Y32.830 F5000;
G4 P0;
M40 S30;
G4 P0.12;
G0 X-178.745 Y36.191;
G4 P0;
M40 S0;
G4 P0.12;
G1 X-178.745 Y37.672 F5000;
G4 P0;
M40 S30;
G4 P0.12;
G0 X-171.709 Y37.694;
G4 P0;
M40 S0;
G4 P0.12;
G1 X-161.618 Y27.603 F5000;
G4 P0;
M40 S30;
G4 P0.12;
G0 X-166.172 Y27.881;
G4 P0;
M40 S0;
G4 P0.12;
G1 X-166.172 Y42.763 F5000;
G4 P0;
M40 S30;
G4 P0.12;
G0 X-158.985 Y41.511;
G4 P0;
M40 S0;
G4 P0.12;
G1 X-153.723 Y36.249 F5000;
G1 X-153.443 Y35.322 F5000;
G4 P0;
M40 S30;
G4 P0.12;
G0 X-153.443 Y36.345;
G4 P0;
M40 S0;
G4 P0.12;
G1 X-153.443 Y37.182 F5000;
G4 P0;
M40 S30;
G4 P0.12;
G0 X-157.017 Y21.075;
G4 P0;
M40 S0;
G4 P0.12;
G1 X-151.137 Y15.194 F5000;
G4 P0;
M40 S30;
G4 P0.12;
G0 X-156.255 Y6.245;
G4 P0;
M40 S0;
G4 P0.12;
G1 X-156.255 Y3.671 F5000;
G4 P0;
M40 S30;
G4 P0.12;
G0 X-169.230 Y4.724;
G4 P0;
M40 S0;
G4 P0.12;
G1 X-169.230 Y1.761 F5000;
G4 P0;
M40 S30;
G4 P0.12;
G0 X-162.857 Y15.236;
G4 P0;
M40 S0;
G4 P0.12;
G1 X-164.254 Y16.632 F5000;
G4 P0;
M40 S30;
G4 P0.12;
G0 X-191.160 Y26.960;
G4 P0;
M40 S0;
G4 P0.12;
G1 X-196.604 Y32.404 F5000;
G4 P0;
M40 S30;
G4 P0.12;
G0 X-194.547 Y36.020;
G4 P0;
M40 S0;
G4 P0.12;
G1 X-190.843 Y36.020 F5000;
G4 P0;
M40 S30;
G4 P0.12;
G0 X-205.560 Y21.247;
G4 P0;
M40 S0;
G4 P0.12;
G1 X-205.560 Y19.947 F5000;
G4 P0;
M40 S30;
G4 P0.12;
G0 X-211.737 Y20.099;
G4 P0;
M40 S0;
G4 P0.12;
G1 X-214.164 Y20.099 F5000;
G4 P0;
M40 S30;
G4 P0.12;
G0 X-212.883 Y20.721;
G4 P0;
M40 S0;
G4 P0.12;
G1 X-212.883 Y33.280 F5000;
G4 P0;
M40 S30;
G4 P0.12;
G0 X-209.821 Y25.636;
G4 P0;
M40 S0;
G4 P0.12;
G1 X-216.207 Y25.636 F5000;
G4 P0;
M40 S30;
G4 P0.12;
G0 X-224.199 Y30.175;
G4 P0;
M40 S0;
G4 P0.12;
G1 X-226.324 Y32.300 F5000;
G4 P0;
M40 S30;
G4 P0.12;
G0 X-232.309 Y29.522;
G4 P0;
M40 S0;
G4 P0.12;
G1 X-226.343 Y23.557 F5000;
G4 P0;
M40 S30;
G4 P0.12;
G0 X-225.186 Y20.262;
G4 P0;
M40 S0;
G4 P0.12;
G1 X-228.476 Y20.262 F5000;
G4 P0;
M40 S30;
G4 P0.12;
G0 X-236.154 Y16.944;
G4 P0;
M40 S0;
G4 P0.12;
G1 X-242.482 Y16.944 F5000;
G4 P0;
M40 S30;
G4 P0.12;
G0 X-241.976 Y20.262;
G4 P0;
M40 S0;
G4 P0.12;
G1 X-238.685 Y20.262 F5000;
G4 P0;
M40 S30;
G4 P0.12;
G0 X-238.471 Y20.011;
G4 P0;
M40 S0;
G4 P0.12;
G1 X-238.471 Y3.136 F5000;
G4 P0;
M40 S30;
G4 P0.12;
G0 X-233.623 Y5.872;
G4 P0;
M40 S0;
G4 P0.12;
G1 X-248.683 Y5.872 F5000;
G4 P0;
M40 S30;
G4 P0.12;
G0 X-244.099 Y11.767;
G4 P0;
M40 S0;
G4 P0.12;
G1 X-232.167 Y-0.165 F5000;
G4 P0;
M40 S30;
G4 P0.12;
G0 X-232.473 Y11.460;
G4 P0;
M40 S0;
G4 P0.12;
G1 X-241.273 Y20.260 F5000;
G4 P0;
M40 S30;
G4 P0.12;
G0 X-254.341 Y12.699;
G4 P0;
M40 S0;
G4 P0.12;
G1 X-257.304 Y12.699 F5000;
G4 P0;
M40 S30;
G4 P0.12;
G0 X-263.718 Y26.733;
G4 P0;
M40 S0;
G4 P0.12;
G1 X-265.796 Y26.733 F5000;
G4 P0;
M40 S30;
G4 P0.12;
G0 X-262.007 Y34.546;
G4 P0;
M40 S0;
G4 P0.12;
G1 X-262.007 Y40.408 F5000;
G4 P0;
M40 S30;
G4 P0.12;
G0 X-260.747 Y39.578;
G4 P0;
M40 S0;
G4 P0.12;
G1 X-255.036 Y39.578 F5000;
G4 P0;
M40 S30;
G4 P0.12;
G0 X-267.415 Y43.135;
G4 P0;
M40 S0;
G4 P0.12;
G1 X-267.415 Y46.485 F5000;
G4 P0;
M40 S30;
G4 P0.12;
G0 X-270.667 Y46.571;
G4 P0;
M40 S0;
G4 P0.12;
G1 X-270.667 Y51.140 F5000;
G4 P0;
M40 S30;
G4 P0.12;
G0 X-275.625 Y39.480;
G4 P0;
M40 S0;
G4 P0.12;
G1 X-275.192 Y39.047 F5000;
G4 P0;
M40 S30;
G4 P0.12;
G0 X-255.018 Y59.511;
G4 P0;
M40 S0;
G4 P0.12;
G1 X-256.707 Y61.200 F5000;
G4 P0;
M40 S30;
G4 P0.12;
G0 X-252.270 Y61.739;
G4 P0;
M40 S0;
G4 P0.12;
G1 X-252.270 Y68.025 F5000;
G4 P0;
M40 S30;
G4 P0.12;
G0 X-247.478 Y74.684;
G4 P0;
M40 S0;
G4 P0.12;
G1 X-242.107 Y69.313 F5000;
G4 P0;
M40 S30;
G4 P0.12;
G0 X-243.227 Y62.910;
G4 P0;
M40 S0;
G4 P0.12;
G1 X-243.227 Y76.371 F5000;
G1 X-247.275 Y76.520 F5000;
G4 P0;
M40 S30;
G4 P0.12;
G0 X-226.416 Y70.341;
G4 P0;
M40 S0;
G4 P0.12;
G1 X-224.411 Y68.336 F5000;
G4 P0;
M40 S30;
G4 P0.12;
G0 X-221.073 Y72.759;
G4 P0;
M40 S0;
G4 P0.12;
G1 X-221.073 Y77.460 F5000;
G1 X-243.116 Y99.633 F5000;
G4 P0;
M40 S30;
G4 P0.12;
G0 X-247.145 Y102.145;
G4 P0;
M40 S0;
G4 P0.12;
G1 X-95.949 Y102.145 F5000;
G4 P0;
M40 S30;
G4 P0.12;
G0 X-102.814 Y114.406;
G4 P0;
M40 S0;
G4 P0.12;
G1 X-226.729 Y114.406 F5000;
G4 P0;
M40 S30;
G4 P0.12;
G0 X-236.857 Y113.128;
G4 P0;
M40 S0;
G4 P0.12;
G1 X-205.763 Y82.033 F5000;
G4 P0;
M40 S30;
G4 P0.12;
G0 X-200.651 Y83.017;
G4 P0;
M40 S0;
G4 P0.12;
G1 X-240.434 Y122.800 F5000;
G4 P0;
M40 S30;
G4 P0.12;
G0 X-242.353 Y120.230;
G4 P0;
M40 S0;
G4 P0.12;
G1 X-210.237 Y120.230 F5000;
G4 P0;
M40 S30;
G4 P0.12;
G0 X-198.305 Y120.230;
G4 P0;
M40 S0;
G4 P0.12;
G1 X-101.222 Y120.230 F5000;
G4 P0;
M40 S30;
G4 P0.12;
G0 X-95.657 Y119.060;
G4 P0;
M40 S0;
G4 P0.12;
G1 X-94.738 Y119.060 F5000;
G4 P0;
M40 S30;
G4 P0.12;
G0 X-89.436 Y120.230;
G4 P0;
M40 S0;
G4 P0.12;
G1 X-77.651 Y120.230 F5000;
G4 P0;
M40 S30;
G4 P0.12;
G0 X-70.505 Y121.570;
G4 P0;
M40 S0;
G4 P0.12;
G1 X-68.321 Y121.570 F5000;
G4 P0;
M40 S30;
G4 P0.12;
G0 X-67.126 Y117.770;
G4 P0;
M40 S0;
G4 P0.12;
G1 X-59.324 Y109.968 F5000;
G4 P0;
M40 S30;
G4 P0.12;
G0 X-48.927 Y105.220;
G4 P0;
M40 S0;
G4 P0.12;
G1 X-47.627 Y105.220 F5000;
G4 P0;
M40 S30;
G4 P0.12;
G0 X-48.995 Y95.705;
G4 P0;
M40 S0;
G4 P0.12;
G1 X-48.562 Y95.272 F5000;
G4 P0;
M40 S30;
G4 P0.12;
G0 X-37.750 Y106.256;
G4 P0;
M40 S0;
G4 P0.12;
G1 X-37.750 Y107.737 F5000;
G4 P0;
M40 S30;
G4 P0.12;
G0 X-42.913 Y121.226;
G4 P0;
M40 S0;
G4 P0.12;
G1 X-57.373 Y135.687 F5000;
G4 P0;
M40 S30;
G4 P0.12;
G0 X-52.629 Y133.171;
G4 P0;
M40 S0;
G4 P0.12;
G1 X-52.629 Y127.938 F5000;
G4 P0;
M40 S30;
G4 P0.12;
G0 X-59.523 Y141.550;
G4 P0;
M40 S0;
G4 P0.12;
G1 X-61.848 Y141.550 F5000;
G4 P0;
M40 S30;
G4 P0.12;
G0 X-54.093 Y157.120;
G4 P0;
M40 S0;
G4 P0.12;
G1 X-52.350 Y157.120 F5000;
G4 P0;
M40 S30;
G4 P0.12;
G0 X-32.560 Y161.445;
G4 P0;
M40 S0;
G4 P0.12;
G1 X-32.127 Y161.012 F5000;
G4 P0;
M40 S30;
G4 P0.12;
G0 X-19.585 Y156.139;
G4 P0;
M40 S0;
G4 P0.12;
G1 X-19.585 Y153.926 F5000;
G4 P0;
M40 S30;
G4 P0.12;
G0 X-16.893 Y143.280;
G4 P0;
M40 S0;
G4 P0.12;
G1 X-15.056 Y143.280 F5000;
G4 P0;
M40 S30;
G4 P0.12;
G0 X-8.906 Y140.296;
G4 P0;
M40 S0;
G4 P0.12;
G1 X-8.906 Y136.508 F5000;
G4 P0;
M40 S30;
G4 P0.12;
G0 X4.635 Y139.820;
G4 P0;
M40 S0;
G4 P0.12;
G1 X4.635 Y121.096 F5000;
G4 P0;
M40 S30;
G4 P0.12;
G0 X-3.331 Y106.266;
G4 P0;
M40 S0;
G4 P0.12;
G1 X-4.015 Y106.950 F5000;
G1 X-4.015 Y105.983 F5000;
G4 P0;
M40 S30;
G4 P0.12;
G0 X-7.756 Y97.150;
G4 P0;
M40 S0;
G4 P0.12;
G1 X-7.756 Y86.052 F5000;
G4 P0;
M40 S30;
G4 P0.12;
G0 X-3.125 Y85.984;
G4 P0;
M40 S0;
G4 P0.12;
G1 X-14.878 Y85.984 F5000;
G4 P0;
M40 S30;
G4 P0.12;
G0 X-18.957 Y87.475;
G4 P0;
M40 S0;
G4 P0.12;
G1 X-18.957 Y95.692 F5000;
G4 P0;
M40 S30;
G4 P0.12;
G0 X-16.886 Y92.326;
G4 P0;
M40 S0;
G4 P0.12;
G1 X-5.617 Y81.058 F5000;
G4 P0;
M40 S30;
G4 P0.12;
G0 X2.473 Y94.407;
G4 P0;
M40 S0;
G4 P0.12;
G1 X2.040 Y94.840 F5000;
G4 P0;
M40 S30;
G4 P0.12;
G0 X4.536 Y65.248;
G4 P0;
M40 S0;
G4 P0.12;
G1 X-4.504 Y65.248 F5000;
G4 P0;
M40 S30;
G4 P0.12;
G0 X-7.117 Y64.565;
G4 P0;
M40 S0;
G4 P0.12;
G1 X-8.279 Y64.565 F5000;
G4 P0;
M40 S30;
G4 P0.12;
G0 X-14.293 Y68.025;
G4 P0;
M40 S0;
G4 P0.12;
G1 X-15.212 Y68.025 F5000;
G4 P0;
M40 S30;
G4 P0.12;
G0 X-0.736 Y56.008;
G4 P0;
M40 S0;
G4 P0.12;
G1 X2.609 Y52.662 F5000;
G4 P0;
M40 S30;
G4 P0.12;
G0 X2.708 Y59.273;
G4 P0;
M40 S0;
G4 P0.12;
G1 X5.412 Y59.273 F5000;
G4 P0;
M40 S30;
G4 P0.12;
G0 X2.307 Y41.590;
G4 P0;
M40 S0;
G4 P0.12;
G1 X-1.133 Y41.590 F5000;
G4 P0;
M40 S30;
G4 P0.12;
G0 X-19.987 Y42.940;
G4 P0;
M40 S0;
G4 P0.12;
G1 X-21.439 Y42.940 F5000;
G4 P0;
M40 S30;
G4 P0.12;
G0 X-37.392 Y30.830;
G4 P0;
M40 S0;
G4 P0.12;
G1 X-38.554 Y30.830 F5000;
G4 P0;
M40 S30;
G4 P0.12;
G0 X-37.750 Y30.769;
G4 P0;
M40 S0;
G4 P0.12;
G1 X-37.750 Y29.607 F5000;
G4 P0;
M40 S30;
G4 P0.12;
G0 X-31.575 Y19.356;
G4 P0;
M40 S0;
G4 P0.12;
G1 X-26.883 Y14.665 F5000;
G4 P0;
M40 S30;
G4 P0.12;
G0 X-32.560 Y9.992;
G4 P0;
M40 S0;
G4 P0.12;
G1 X-32.560 Y8.511 F5000;
G4 P0;
M40 S30;
G4 P0.12;
G0 X-42.246 Y10.070;
G4 P0;
M40 S0;
G4 P0.12;
G1 X-43.727 Y10.070 F5000;
G4 P0;
M40 S30;
G4 P0.12;
G0 X-42.940 Y9.992;
G4 P0;
M40 S0;
G4 P0.12;
G1 X-42.940 Y8.511 F5000;
G4 P0;
M40 S30;
G4 P0.12;
G0 X-43.121 Y5.926;
G4 P0;
M40 S0;
G4 P0.12;
G1 X-43.805 Y6.610 F5000;
G1 X-43.805 Y5.643 F5000;
G4 P0;
M40 S30;
G4 P0.12;
G0 X-35.155 Y-2.137;
G4 P0;
M40 S0;
G4 P0.12;
G1 X-35.155 Y-3.974 F5000;
G4 P0;
M40 S30;
G4 P0.12;
G0 X-31.695 Y-4.635;
G4 P0;
M40 S0;
G4 P0.12;
G1 X-31.262 Y-5.067 F5000;
G4 P0;
M40 S30;
G4 P0.12;
G0 X-22.180 Y-4.273;
G4 P0;
M40 S0;
G4 P0.12;
G1 X-22.180 Y-2.973 F5000;
G4 P0;
M40 S30;
G4 P0.12;
G0 X-11.668 Y7.475;
G4 P0;
M40 S0;
G4 P0.12;
G1 X-9.169 Y7.475 F5000;
G4 P0;
M40 S30;
G4 P0.12;
G0 X-11.824 Y12.889;
G4 P0;
M40 S0;
G4 P0.12;
G1 X-16.306 Y12.889 F5000;
G4 P0;
M40 S30;
G4 P0.12;
G0 X-1.420 Y-4.635;
G4 P0;
M40 S0;
G4 P0.12;
G1 X-0.988 Y-5.067 F5000;
G4 P0;
M40 S30;
G4 P0.12;
G0 X-53.912 Y16.448;
G4 P0;
M40 S0;
G4 P0.12;
G1 X-58.280 Y16.448 F5000;
G4 P0;
M40 S30;
G4 P0.12;
G0 X-56.096 Y20.450;
G4 P0;
M40 S0;
G4 P0.12;
G1 X-53.912 Y20.450 F5000;
G4 P0;
M40 S30;
G4 P0.12;
G0 X-113.211 Y27.370;
G4 P0;
M40 S0;
G4 P0.12;
G1 X-119.925 Y27.370 F5000;
G4 P0;
M40 S30;
G4 P0.12;
G0 X-118.908 Y14.395;
G4 P0;
M40 S0;
G4 P0.12;
G1 X-121.073 Y14.395 F5000;
G4 P0;
M40 S30;
G4 P0.12;
G0 X-117.379 Y43.025;
G4 P0;
M40 S0;
G4 P0.12;
G1 X-118.419 Y44.065 F5000;
G4 P0;
M40 S30;
G4 P0.12;
G0 X-173.524 Y72.350;
G4 P0;
M40 S0;
G4 P0.12;
G1 X-175.544 Y72.350 F5000;
G4 P0;
M40 S30;
G4 P0.12;
G0 X-179.342 Y78.563;
G4 P0;
M40 S0;
G4 P0.12;
G1 X-179.342 Y94.696 F5000;
G4 P0;
M40 S30;
G4 P0.12;
G0 X-179.342 Y106.419;
G4 P0;
M40 S0;
G4 P0.12;
G1 X-179.342 Y236.301 F5000;
G4 P0;
M40 S30;
G4 P0.12;
G0 X-179.342 Y250.345;
G4 P0;
M40 S0;
G4 P0.12;
G1 X-179.342 Y285.050 F5000;
G4 P0;
M40 S30;
G4 P0.12;
G0 X-183.978 Y312.879;
G4 P0;
M40 S0;
G4 P0.12;
G1 X-183.978 Y346.083 F5000;
G4 P0;
M40 S30;
G4 P0.12;
G0 X-183.978 Y354.087;
G4 P0;
M40 S0;
G4 P0.12;
G1 X-183.978 Y404.726 F5000;
G4 P0;
M40 S30;
G4 P0.12;
G0 X-192.318 Y409.015;
G4 P0;
M40 S0;
G4 P0.12;
G1 X-195.897 Y409.015 F5000;
G4 P0;
M40 S30;
G4 P0.12;
G0 X-196.351 Y409.277;
G4 P0;
M40 S0;
G4 P0.12;
G1 X-196.351 Y89.175 F5000;
G4 P0;
M40 S30;
G4 P0.12;
G0 X-212.213 Y84.025;
G4 P0;
M40 S0;
G4 P0.12;
G1 X-212.213 Y133.593 F5000;
G4 P0;
M40 S30;
G4 P0.12;
G0 X-216.704 Y134.817;
G4 P0;
M40 S0;
G4 P0.12;
G1 X-99.981 Y134.817 F5000;
G4 P0;
M40 S30;
G4 P0.12;
G0 X-97.067 Y129.087;
G4 P0;
M40 S0;
G4 P0.12;
G1 X-97.067 Y345.386 F5000;
G4 P0;
M40 S30;
G4 P0.12;
G0 X-79.683 Y352.480;
G4 P0;
M40 S0;
G4 P0.12;
G1 X-261.951 Y352.480 F5000;
G4 P0;
M40 S30;
G4 P0.12;
G0 X-264.897 Y351.880;
G4 P0;
M40 S0;
G4 P0.12;
G1 X-223.634 Y310.616 F5000;
G4 P0;
M40 S30;
G4 P0.12;
G0 X-212.213 Y313.842;
G4 P0;
M40 S0;
G4 P0.12;
G1 X-212.213 Y408.473 F5000;
G4 P0;
M40 S30;
G4 P0.12;
G0 X-209.832 Y413.107;
G4 P0;
M40 S0;
G4 P0.12;
G1 X-211.526 Y414.801 F5000;
G4 P0;
M40 S30;
G4 P0.12;
G0 X-207.168 Y427.865;
G4 P0;
M40 S0;
G4 P0.12;
G1 X-204.843 Y427.865 F5000;
G4 P0;
M40 S30;
G4 P0.12;
G0 X-189.077 Y421.810;
G4 P0;
M40 S0;
G4 P0.12;
G1 X-188.158 Y421.810 F5000;
G4 P0;
M40 S30;
G4 P0.12;
G0 X-190.639 Y437.513;
G4 P0;
M40 S0;
G4 P0.12;
G1 X-190.639 Y444.300 F5000;
G4 P0;
M40 S30;
G4 P0.12;
G0 X-189.990 Y447.327;
G4 P0;
M40 S0;
G4 P0.12;
G1 X-189.990 Y449.382 F5000;
G4 P0;
M40 S30;
G4 P0.12;
G0 X-189.558 Y449.490;
G4 P0;
M40 S0;
G4 P0.12;
G1 X-191.612 Y449.490 F5000;
G4 P0;
M40 S30;
G4 P0.12;
G0 X-179.532 Y447.760;
G4 P0;
M40 S0;
G4 P0.12;
G1 X-178.051 Y447.760 F5000;
G1 X-177.880 Y446.201 F5000;
G4 P0;
M40 S30;
G4 P0.12;
G0 X-164.040 Y443.266;
G4 P0;
M40 S0;
G4 P0.12;
G1 X-164.040 Y440.057 F5000;
G4 P0;
M40 S30;
G4 P0.12;
G0 X-157.120 Y433.920;
G4 P0;
M40 S0;
G4 P0.12;
G1 X-156.688 Y433.488 F5000;
G4 P0;
M40 S30;
G4 P0.12;
G0 X-156.051 Y420.696;
G4 P0;
M40 S0;
G4 P0.12;
G1 X-152.175 Y420.696 F5000;
G4 P0;
M40 S30;
G4 P0.12;
G0 X-144.419 Y413.755;
G4 P0;
M40 S0;
G4 P0.12;
G1 X-131.267 Y413.755 F5000;
G4 P0;
M40 S30;
G4 P0.12;
G0 X-123.598 Y398.134;
G4 P0;
M40 S0;
G4 P0.12;
G1 X-77.168 Y351.704 F5000;
G4 P0;
M40 S30;
G4 P0.12;
G0 X-71.758 Y336.878;
G4 P0;
M40 S0;
G4 P0.12;
G1 X-276.295 Y336.878 F5000;
G4 P0;
M40 S30;
G4 P0.12;
G0 X-294.167 Y346.709;
G4 P0;
M40 S0;
G4 P0.12;
G1 X-312.946 Y346.709 F5000;
G4 P0;
M40 S30;
G4 P0.12;
G0 X-309.080 Y344.285;
G4 P0;
M40 S0;
G4 P0.12;
G1 X-307.503 Y342.709 F5000;
G4 P0;
M40 S30;
G4 P0.12;
G0 X-299.078 Y352.356;
G4 P0;
M40 S0;
G4 P0.12;
G1 X-296.333 Y352.356 F5000;
G4 P0;
M40 S30;
G4 P0.12;
G0 X-297.296 Y360.633;
G4 P0;
M40 S0;
G4 P0.12;
G1 X-309.607 Y360.633 F5000;
G4 P0;
M40 S30;
G4 P0.12;
G0 X-315.057 Y359.530;
G4 P0;
M40 S0;
G4 P0.12;
G1 X-316.219 Y359.530 F5000;
G4 P0;
M40 S30;
G4 P0.12;
G0 X-315.415 Y359.469;
G4 P0;
M40 S0;
G4 P0.12;
G1 X-315.415 Y358.307 F5000;
G4 P0;
M40 S30;
G4 P0.12;
G0 X-329.818 Y355.699;
G4 P0;
M40 S0;
G4 P0.12;
G1 X-340.424 Y355.699 F5000;
G4 P0;
M40 S30;
G4 P0.12;
G0 X-338.260 Y356.881;
G4 P0;
M40 S0;
G4 P0.12;
G1 X-326.814 Y345.436 F5000;
G4 P0;
M40 S30;
G4 P0.12;
G0 X-333.136 Y342.850;
G4 P0;
M40 S0;
G4 P0.12;
G1 X-333.136 Y358.110 F5000;
G4 P0;
M40 S30;
G4 P0.12;
G0 X-329.055 Y352.650;
G4 P0;
M40 S0;
G4 P0.12;
G1 X-340.500 Y352.650 F5000;
G4 P0;
M40 S30;
G4 P0.12;
G0 X-339.774 Y349.817;
G4 P0;
M40 S0;
G4 P0.12;
G1 X-327.635 Y337.678 F5000;
G4 P0;
M40 S30;
G4 P0.12;
G0 X-324.930 Y335.310;
G4 P0;
M40 S0;
G4 P0.12;
G1 X-324.498 Y334.877 F5000;
G4 P0;
M40 S30;
G4 P0.12;
G0 X-333.580 Y326.571;
G4 P0;
M40 S0;
G4 P0.12;
G1 X-333.580 Y324.877 F5000;
G4 P0;
M40 S30;
G4 P0.12;
G0 X-336.882 Y307.453;
G4 P0;
M40 S0;
G4 P0.12;
G1 X-336.882 Y298.627 F5000;
G4 P0;
M40 S30;
G4 P0.12;
G0 X-336.087 Y300.627;
G4 P0;
M40 S0;
G4 P0.12;
G1 X-340.279 Y300.627 F5000;
G4 P0;
M40 S30;
G4 P0.12;
G0 X-339.233 Y298.511;
G4 P0;
M40 S0;
G4 P0.12;
G1 X-330.027 Y289.305 F5000;
G4 P0;
M40 S30;
G4 P0.12;
G0 X-327.682 Y293.433;
G4 P0;
M40 S0;
G4 P0.12;
G1 X-339.986 Y305.738 F5000;
G4 P0;
M40 S30;
G4 P0.12;
G0 X-318.580 Y284.657;
G4 P0;
M40 S0;
G4 P0.12;
G1 X-307.076 Y284.657 F5000;
G4 P0;
M40 S30;
G4 P0.12;
G0 X-307.811 Y282.221;
G4 P0;
M40 S0;
G4 P0.12;
G1 X-307.811 Y290.087 F5000;
G4 P0;
M40 S30;
G4 P0.12;
G0 X-272.213 Y303.562;
G4 P0;
M40 S0;
G4 P0.12;
G1 X-83.498 Y114.847 F5000;
G4 P0;
M40 S30;
G4 P0.12;
G0 X-107.840 Y132.257;
G4 P0;
M40 S0;
G4 P0.12;
G1 X-261.579 Y285.995 F5000;
G1 X-261.287 Y238.738 F5000;
G4 P0;
M40 S30;
G4 P0.12;
G0 X-212.213 Y295.817;
G4 P0;
M40 S0;
G4 P0.12;
G1 X-212.202 Y147.564 F5000;
G4 P0;
M40 S30;
G4 P0.12;
G0 X-212.672 Y161.141;
G4 P0;
M40 S0;
G4 P0.12;
G1 X-95.949 Y161.141 F5000;
G4 P0;
M40 S30;
G4 P0.12;
G0 X-92.992 Y179.975;
G4 P0;
M40 S0;
G4 P0.12;
G1 X-210.729 Y297.712 F5000;
G4 P0;
M40 S30;
G4 P0.12;
G0 X-254.260 Y315.639;
G4 P0;
M40 S0;
G4 P0.12;
G1 X-64.999 Y315.639 F5000;
G4 P0;
M40 S30;
G4 P0.12;
G0 X-29.735 Y346.555;
G4 P0;
M40 S0;
G4 P0.12;
G1 X-25.367 Y346.555 F5000;
G4 P0;
M40 S30;
G4 P0.12;
G0 X-32.524 Y354.304;
G4 P0;
M40 S0;
G4 P0.12;
G1 X-35.023 Y356.803 F5000;
G4 P0;
M40 S30;
G4 P0.12;
G0 X4.635 Y347.420;
G4 P0;
M40 S0;
G4 P0.12;
G1 X5.067 Y346.988 F5000;
G4 P0;
M40 S30;
G4 P0.12;
G0 X4.635 Y264.291;
G4 P0;
M40 S0;
G4 P0.12;
G1 X4.635 Y262.597 F5000;
G4 P0;
M40 S30;
G4 P0.12;
G0 X4.635 Y259.879;
G4 P0;
M40 S0;
G4 P0.12;
G1 X4.635 Y253.014 F5000;
G4 P0;
M40 S30;
G4 P0.12;
G0 X1.516 Y250.651;
G4 P0;
M40 S0;
G4 P0.12;
G1 X-3.338 Y255.505 F5000;
G4 P0;
M40 S30;
G4 P0.12;
G0 X2.905 Y239.179;
G4 P0;
M40 S0;
G4 P0.12;
G1 X2.905 Y236.966 F5000;
G4 P0;
M40 S30;
G4 P0.12;
G0 X4.635 Y232.273;
G4 P0;
M40 S0;
G4 P0.12;
G1 X4.635 Y233.240 F5000;
G1 X5.319 Y232.556 F5000;
G4 P0;
M40 S30;
G4 P0.12;
G0 X4.635 Y219.214;
G4 P0;
M40 S0;
G4 P0.12;
G1 X4.635 Y197.122 F5000;
G4 P0;
M40 S30;
G4 P0.12;
G0 X3.820 Y199.179;
G4 P0;
M40 S0;
G4 P0.12;
G1 X-13.154 Y199.179 F5000;
G4 P0;
M40 S30;
G4 P0.12;
G0 X-17.855 Y201.406;
G4 P0;
M40 S0;
G4 P0.12;
G1 X-17.855 Y202.887 F5000;
G4 P0;
M40 S30;
G4 P0.12;
G0 X-25.423 Y204.399;
G4 P0;
M40 S0;
G4 P0.12;
G1 X-25.423 Y183.755 F5000;
G4 P0;
M40 S30;
G4 P0.12;
G0 X-31.268 Y185.452;
G4 P0;
M40 S0;
G4 P0.12;
G1 X-31.268 Y210.913 F5000;
G4 P0;
M40 S30;
G4 P0.12;
G0 X-30.818 Y213.195;
G4 P0;
M40 S0;
G4 P0.12;
G1 X-9.813 Y192.191 F5000;
G4 P0;
M40 S30;
G4 P0.12;
G0 X4.635 Y177.880;
G4 P0;
M40 S0;
G4 P0.12;
G1 X4.635 Y171.152 F5000;
G4 P0;
M40 S30;
G4 P0.12;
G0 X-3.582 Y167.933;
G4 P0;
M40 S0;
G4 P0.12;
G1 X-4.015 Y168.365 F5000;
G4 P0;
M40 S30;
G4 P0.12;
G0 X-11.554 Y168.984;
G4 P0;
M40 S0;
G4 P0.12;
G1 X-13.256 Y170.686 F5000;
G4 P0;
M40 S30;
G4 P0.12;
G0 X-13.776 Y170.960;
G4 P0;
M40 S0;
G4 P0.12;
G1 X-18.590 Y170.960 F5000;
G4 P0;
M40 S30;
G4 P0.12;
G0 X1.253 Y158.850;
G4 P0;
M40 S0;
G4 P0.12;
G1 X2.734 Y158.850 F5000;
G4 P0;
M40 S30;
G4 P0.12;
G0 X4.635 Y145.738;
G4 P0;
M40 S0;
G4 P0.12;
G1 X4.635 Y143.140 F5000;
G4 P0;
M40 S30;
G4 P0.12;
G0 X-28.839 Y136.360;
G4 P0;
M40 S0;
G4 P0.12;
G1 X-32.374 Y136.360 F5000;
G4 P0;
M40 S30;
G4 P0.12;
G0 X-29.028 Y126.607;
G4 P0;
M40 S0;
G4 P0.12;
G1 X-27.778 Y125.357 F5000;
G4 P0;
M40 S30;
G4 P0.12;
G0 X-48.595 Y178.731;
G4 P0;
M40 S0;
G4 P0.12;
G1 X-50.619 Y178.731 F5000;
G4 P0;
M40 S30;
G4 P0.12;
G0 X-75.652 Y185.986;
G4 P0;
M40 S0;
G4 P0.12;
G1 X-268.251 Y378.585 F5000;
G4 P0;
M40 S30;
G4 P0.12;
G0 X-282.405 Y382.020;
G4 P0;
M40 S0;
G4 P0.12;
G1 X-285.003 Y382.020 F5000;
G4 P0;
M40 S30;
G4 P0.12;
G0 X-284.777 Y378.835;
G4 P0;
M40 S0;
G4 P0.12;
G1 X-296.126 Y378.835 F5000;
G4 P0;
M40 S30;
G4 P0.12;
G0 X-295.516 Y381.917;
G4 P0;
M40 S0;
G4 P0.12;
G1 X-290.204 Y376.606 F5000;
G4 P0;
M40 S30;
G4 P0.12;
G0 X-284.777 Y375.676;
G4 P0;
M40 S0;
G4 P0.12;
G1 X-298.861 Y375.676 F5000;
G4 P0;
M40 S30;
G4 P0.12;
G0 X-293.635 Y370.763;
G4 P0;
M40 S0;
G4 P0.12;
G1 X-293.635 Y397.322 F5000;
G4 P0;
M40 S30;
G4 P0.12;
G0 X-290.288 Y393.784;
G4 P0;
M40 S0;
G4 P0.12;
G1 X-286.083 Y389.580 F5000;
G4 P0;
M40 S30;
G4 P0.12;
G0 X-288.192 Y389.669;
G4 P0;
M40 S0;
G4 P0.12;
G1 X-294.849 Y389.669 F5000;
G4 P0;
M40 S30;
G4 P0.12;
G0 X-298.627 Y383.282;
G4 P0;
M40 S0;
G4 P0.12;
G1 X-289.472 Y383.282 F5000;
G4 P0;
M40 S30;
G4 P0.12;
G0 X-295.020 Y367.190;
G4 P0;
M40 S0;
G4 P0.12;
G1 X-298.264 Y367.190 F5000;
G4 P0;
M40 S30;
G4 P0.12;
G0 X-311.832 Y381.028;
G4 P0;
M40 S0;
G4 P0.12;
G1 X-316.631 Y385.828 F5000;
G4 P0;
M40 S30;
G4 P0.12;
G0 X-332.715 Y400.692;
G4 P0;
M40 S0;
G4 P0.12;
G1 X-332.715 Y401.854 F5000;
G4 P0;
M40 S30;
G4 P0.12;
G0 X-332.357 Y401.915;
G4 P0;
M40 S0;
G4 P0.12;
G1 X-333.519 Y401.915 F5000;
G4 P0;
M40 S30;
G4 P0.12;
G0 X-322.335 Y429.756;
G4 P0;
M40 S0;
G4 P0.12;
G1 X-313.530 Y429.756 F5000;
G4 P0;
M40 S30;
G4 P0.12;
G0 X-309.967 Y438.164;
G4 P0;
M40 S0;
G4 P0.12;
G1 X-313.003 Y441.200 F5000;
G4 P0;
M40 S30;
G4 P0.12;
G0 X-301.988 Y459.193;
G4 P0;
M40 S0;
G4 P0.12;
G1 X-296.620 Y459.193 F5000;
G4 P0;
M40 S30;
G4 P0.12;
G0 X-292.731 Y462.357;
G4 P0;
M40 S0;
G4 P0.12;
G1 X-292.731 Y473.253 F5000;
G4 P0;
M40 S30;
G4 P0.12;
G0 X-293.123 Y471.341;
G4 P0;
M40 S0;
G4 P0.12;
G1 X-291.017 Y469.235 F5000;
G4 P0;
M40 S30;
G4 P0.12;
G0 X-303.960 Y462.465;
G4 P0;
M40 S0;
G4 P0.12;
G1 X-307.538 Y462.465 F5000;
G4 P0;
M40 S30;
G4 P0.12;
G0 X-329.153 Y459.870;
G4 P0;
M40 S0;
G4 P0.12;
G1 X-330.072 Y459.870 F5000;
G4 P0;
M40 S30;
G4 P0.12;
G0 X-339.822 Y448.196;
G4 P0;
M40 S0;
G4 P0.12;
G1 X-338.564 Y446.937 F5000;
G4 P0;
M40 S30;
G4 P0.12;
G0 X-339.635 Y473.506;
G4 P0;
M40 S0;
G4 P0.12;
G1 X-339.635 Y475.343 F5000;
G4 P0;
M40 S30;
G4 P0.12;
G0 X-336.500 Y506.273;
G4 P0;
M40 S0;
G4 P0.12;
G1 X-336.500 Y509.706 F5000;
G4 P0;
M40 S30;
G4 P0.12;
G0 X-318.875 Y505.626;
G4 P0;
M40 S0;
G4 P0.12;
G1 X-318.875 Y503.932 F5000;
G4 P0;
M40 S30;
G4 P0.12;
G0 X-298.919 Y501.390;
G4 P0;
M40 S0;
G4 P0.12;
G1 X-297.757 Y501.390 F5000;
G4 P0;
M40 S30;
G4 P0.12;
G0 X-298.115 Y501.329;
G4 P0;
M40 S0;
G4 P0.12;
G1 X-298.115 Y500.167 F5000;
G4 P0;
M40 S30;
G4 P0.12;
G0 X-292.925 Y501.752;
G4 P0;
M40 S0;
G4 P0.12;
G1 X-292.925 Y503.052 F5000;
G4 P0;
M40 S30;
G4 P0.12;
G0 X-261.785 Y500.187;
G4 P0;
M40 S0;
G4 P0.12;
G1 X-251.324 Y500.187 F5000;
G4 P0;
M40 S30;
G4 P0.12;
G0 X-255.948 Y500.471;
G4 P0;
M40 S0;
G4 P0.12;
G1 X-255.948 Y505.614 F5000;
G4 P0;
M40 S30;
G4 P0.12;
G0 X-259.018 Y504.699;
G4 P0;
M40 S0;
G4 P0.12;
G1 X-259.018 Y502.215 F5000;
G4 P0;
M40 S30;
G4 P0.12;
G0 X-247.080 Y509.836;
G4 P0;
M40 S0;
G4 P0.12;
G1 X-247.080 Y511.673 F5000;
G4 P0;
M40 S30;
G4 P0.12;
G0 X-239.001 Y513.500;
G4 P0;
M40 S0;
G4 P0.12;
G1 X-233.412 Y513.500 F5000;
G4 P0;
M40 S30;
G4 P0.12;
G0 X-217.540 Y513.500;
G4 P0;
M40 S0;
G4 P0.12;
G1 X-215.066 Y513.500 F5000;
G4 P0;
M40 S30;
G4 P0.12;
G0 X-205.909 Y462.769;
G4 P0;
M40 S0;
G4 P0.12;
G1 X-205.909 Y456.906 F5000;
G4 P0;
M40 S30;
G4 P0.12;
G0 X-221.210 Y459.173;
G4 P0;
M40 S0;
G4 P0.12;
G1 X-223.599 Y459.173 F5000;
G4 P0;
M40 S30;
G4 P0.12;
G0 X-223.609 Y445.914;
G4 P0;
M40 S0;
G4 P0.12;
G1 X-221.396 Y443.701 F5000;
G4 P0;
M40 S30;
G4 P0.12;
G0 X-221.995 Y442.654;
G4 P0;
M40 S0;
G4 P0.12;
G1 X-221.995 Y441.089 F5000;
G4 P0;
M40 S30;
G4 P0.12;
G0 X-228.505 Y412.172;
G4 P0;
M40 S0;
G4 P0.12;
G1 X-224.047 Y407.714 F5000;
G4 P0;
M40 S30;
G4 P0.12;
G0 X-220.948 Y401.568;
G4 P0;
M40 S0;
G4 P0.12;
G1 X-217.309 Y401.568 F5000;
G4 P0;
M40 S30;
G4 P0.12;
G0 X-229.780 Y400.846;
G4 P0;
M40 S0;
G4 P0.12;
G1 X-229.780 Y402.683 F5000;
G4 P0;
M40 S30;
G4 P0.12;
G0 X-272.275 Y392.948;
G4 P0;
M40 S0;
G4 P0.12;
G1 X-273.691 Y394.365 F5000;
G4 P0;
M40 S30;
G4 P0.12;
G0 X-286.517 Y405.059;
G4 P0;
M40 S0;
G4 P0.12;
G1 X-295.343 Y405.059 F5000;
G4 P0;
M40 S30;
G4 P0.12;
G0 X-297.440 Y409.178;
G4 P0;
M40 S0;
G4 P0.12;
G1 X-282.103 Y409.178 F5000;
G4 P0;
M40 S30;
G4 P0.12;
G0 X-288.391 Y435.784;
G4 P0;
M40 S0;
G4 P0.12;
G1 X-291.225 Y435.784 F5000;
G4 P0;
M40 S30;
G4 P0.12;
G0 X-250.882 Y463.072;
G4 P0;
M40 S0;
G4 P0.12;
G1 X-250.882 Y467.099 F5000;
G4 P0;
M40 S30;
G4 P0.12;
G0 X-107.184 Y467.889;
G4 P0;
M40 S0;
G4 P0.12;
G1 X-105.659 Y466.364 F5000;
G4 P0;
M40 S30;
G4 P0.12;
G0 X-84.392 Y469.317;
G4 P0;
M40 S0;
G4 P0.12;
G1 X-83.092 Y468.017 F5000;
G4 P0;
M40 S30;
G4 P0.12;
G0 X-75.734 Y467.748;
G4 P0;
M40 S0;
G4 P0.12;
G1 X-61.474 Y453.489 F5000;
G4 P0;
M40 S30;
G4 P0.12;
G0 X-57.885 Y470.427;
G4 P0;
M40 S0;
G4 P0.12;
G1 X-66.847 Y470.427 F5000;
G4 P0;
M40 S30;
G4 P0.12;
G0 X-66.847 Y473.915;
G4 P0;
M40 S0;
G4 P0.12;
G1 X-72.135 Y473.915 F5000;
G4 P0;
M40 S30;
G4 P0.12;
G0 X-52.678 Y501.977;
G4 P0;
M40 S0;
G4 P0.12;
G1 X-52.678 Y507.451 F5000;
G4 P0;
M40 S30;
G4 P0.12;
G0 X-54.193 Y513.500;
G4 P0;
M40 S0;
G4 P0.12;
G1 X-62.835 Y513.500 F5000;
G4 P0;
M40 S30;
G4 P0.12;
G0 X-42.824 Y513.500;
G4 P0;
M40 S0;
G4 P0.12;
G1 X-40.611 Y513.500 F5000;
G4 P0;
M40 S30;
G4 P0.12;
G0 X-34.152 Y513.500;
G4 P0;
M40 S0;
G4 P0.12;
G1 X-31.521 Y513.500 F5000;
G4 P0;
M40 S30;
G4 P0.12;
G0 X-25.943 Y505.715;
G4 P0;
M40 S0;
G4 P0.12;
G1 X-25.943 Y481.702 F5000;
G4 P0;
M40 S30;
G4 P0.12;
G0 X-21.315 Y475.440;
G4 P0;
M40 S0;
G4 P0.12;
G1 X-20.882 Y475.007 F5000;
G4 P0;
M40 S30;
G4 P0.12;
G0 X-22.139 Y494.028;
G4 P0;
M40 S0;
G4 P0.12;
G1 X-17.417 Y494.028 F5000;
G4 P0;
M40 S30;
G4 P0.12;
G0 X-11.739 Y505.715;
G4 P0;
M40 S0;
G4 P0.12;
G1 X-10.577 Y505.715 F5000;
G4 P0;
M40 S30;
G4 P0.12;
G0 X-21.315 Y511.717;
G4 P0;
M40 S0;
G4 P0.12;
G1 X-21.315 Y513.411 F5000;
G4 P0;
M40 S30;
G4 P0.12;
G0 X-0.369 Y513.500;
G4 P0;
M40 S0;
G4 P0.12;
G1 X3.166 Y513.500 F5000;
G4 P0;
M40 S30;
G4 P0.12;
G0 X-20.709 Y244.672;
G4 P0;
M40 S0;
G4 P0.12;
G1 X-23.051 Y244.672 F5000;
G4 P0;
M40 S30;
G4 P0.12;
G0 X-24.775 Y240.052;
G4 P0;
M40 S0;
G4 P0.12;
G1 X-24.775 Y237.998 F5000;
G4 P0;
M40 S30;
G4 P0.12;
G0 X-21.315 Y229.678;
G4 P0;
M40 S0;
G4 P0.12;
G1 X-21.315 Y230.645 F5000;
G1 X-20.631 Y229.961 F5000;
G4 P0;
M40 S30;
G4 P0.12;
G0 X-23.045 Y225.444;
G4 P0;
M40 S0;
G4 P0.12;
G1 X-17.421 Y219.819 F5000;
G4 P0;
M40 S30;
G4 P0.12;
G0 X-14.966 Y227.617;
G4 P0;
M40 S0;
G4 P0.12;
G1 X-9.483 Y222.133 F5000;
G4 P0;
M40 S30;
G4 P0.12;
G0 X-8.632 Y216.994;
G4 P0;
M40 S0;
G4 P0.12;
G1 X-8.632 Y232.902 F5000;
G4 P0;
M40 S30;
G4 P0.12;
G0 X-9.678 Y230.163;
G4 P0;
M40 S0;
G4 P0.12;
G1 X-7.675 Y228.159 F5000;
G4 P0;
M40 S30;
G4 P0.12;
G0 X-30.128 Y199.179;
G4 P0;
M40 S0;
G4 P0.12;
G1 X-34.159 Y199.179 F5000;
G4 P0;
M40 S30;
G4 P0.12;
G0 X-41.551 Y207.290;
G4 P0;
M40 S0;
G4 P0.12;
G1 X-44.514 Y207.290 F5000;
G4 P0;
M40 S30;
G4 P0.12;
G0 X-221.073 Y130.214;
G4 P0;
M40 S0;
G4 P0.12;
G1 X-221.073 Y77.982 F5000;
G4 P0;
M40 S30;
G4 P0.12;
G0 X-214.627 Y78.557;
G4 P0;
M40 S0;
G4 P0.12;
G1 X-238.816 Y102.746 F5000;
G4 P0;
M40 S30;
G4 P0.12;
G0 X-244.238 Y127.202;
G4 P0;
M40 S0;
G4 P0.12;
G1 X-244.238 Y140.553 F5000;
G4 P0;
M40 S30;
G4 P0.12;
G0 X-238.763 Y138.840;
G4 P0;
M40 S0;
G4 P0.12;
G1 X-233.478 Y138.840 F5000;
G4 P0;
M40 S30;
G4 P0.12;
G0 X-231.396 Y61.105;
G4 P0;
M40 S0;
G4 P0.12;
G1 X-229.740 Y61.105 F5000;
G4 P0;
M40 S30;
G4 P0.12;
G0 X-225.602 Y52.602;
G4 P0;
M40 S0;
G4 P0.12;
G1 X-224.467 Y51.467 F5000;
G4 P0;
M40 S30;
G4 P0.12;
G0 X-202.100 Y10.070;
G4 P0;
M40 S0;
G4 P0.12;
G1 X-201.667 Y9.637 F5000;
G4 P0;
M40 S30;
G4 P0.12;
G0 X-204.001 Y6.610;
G4 P0;
M40 S0;
G4 P0.12;
G1 X-205.482 Y6.610 F5000;
G4 P0;
M40 S30;
G4 P0.12;
G0 X-204.695 Y6.532;
G4 P0;
M40 S0;
G4 P0.12;
G1 X-204.695 Y5.051 F5000;
G4 P0;
M40 S30;
G4 P0.12;
G0 X-261.739 Y-4.043;
G4 P0;
M40 S0;
G4 P0.12;
G1 X-271.039 Y5.258 F5000;
G4 P0;
M40 S30;
G4 P0.12;
G0 X-277.355 Y7.982;
G4 P0;
M40 S0;
G4 P0.12;
G1 X-277.355 Y9.144 F5000;
G4 P0;
M40 S30;
G4 P0.12;
G0 X-276.997 Y9.205;
G4 P0;
M40 S0;
G4 P0.12;
G1 X-278.159 Y9.205 F5000;
G4 P0;
M40 S30;
G4 P0.12;
G0 X-279.085 Y5.667;
G4 P0;
M40 S0;
G4 P0.12;
G1 X-279.085 Y4.186 F5000;
G4 P0;
M40 S30;
G4 P0.12;
G0 X-279.133 Y-4.215;
G4 P0;
M40 S0;
G4 P0.12;
G1 X-263.660 Y-4.215 F5000;
G4 P0;
M40 S30;
G4 P0.12;
G0 X-293.432 Y-1.175;
G4 P0;
M40 S0;
G4 P0.12;
G1 X-294.594 Y-1.175 F5000;
G4 P0;
M40 S30;
G4 P0.12;
G0 X-293.790 Y-1.236;
G4 P0;
M40 S0;
G4 P0.12;
G1 X-293.790 Y-2.398 F5000;
G4 P0;
M40 S30;
G4 P0.12;
G0 X-242.755 Y62.835;
G4 P0;
M40 S0;
G4 P0.12;
G1 X-244.485 Y64.565 F5000;
G1 X-246.215 Y74.945 F5000;
G1 X-248.810 Y74.945 F5000;
G1 X-250.540 Y73.215 F5000;
G1 X-251.405 Y75.810 F5000;
G1 X-247.945 Y76.675 F5000;
G1 X-245.350 Y79.270 F5000;
G1 X-245.350 Y87.920 F5000;
G1 X-250.540 Y93.110 F5000;
G1 X-252.270 Y97.435 F5000;
G1 X-248.810 Y100.030 F5000;
G1 X-248.810 Y102.625 F5000;
G1 X-241.025 Y99.165 F5000;
G1 X-237.565 Y100.030 F5000;
G1 X-237.565 Y101.760 F5000;
G1 X-240.160 Y103.490 F5000;
G1 X-236.700 Y109.545 F5000;
G1 X-236.700 Y112.140 F5000;
G1 X-238.430 Y113.870 F5000;
G1 X-237.565 Y118.195 F5000;
G1 X-240.160 Y122.520 F5000;
G1 X-241.890 Y120.790 F5000;
G1 X-241.890 Y118.195 F5000;
G1 X-242.755 Y122.520 F5000;
G1 X-239.295 Y127.710 F5000;
G1 X-236.700 Y122.520 F5000;
G1 X-237.565 Y114.735 F5000;
G1 X-233.240 Y110.410 F5000;
G1 X-230.645 Y118.195 F5000;
G1 X-231.510 Y122.520 F5000;
G1 X-229.780 Y126.845 F5000;
G1 X-226.320 Y128.575 F5000;
G1 X-226.320 Y131.170 F5000;
G1 X-216.805 Y138.090 F5000;
G1 X-215.075 Y136.360 F5000;
G1 X-212.480 Y138.955 F5000;
G1 X-215.075 Y145.010 F5000;
G1 X-218.535 Y148.470 F5000;
G1 X-218.535 Y152.795 F5000;
G1 X-212.480 Y154.525 F5000;
G1 X-210.750 Y158.850 F5000;
G1 X-214.210 Y162.310 F5000;
G1 X-218.535 Y162.310 F5000;
G1 X-215.075 Y165.770 F5000;
G1 X-215.075 Y168.365 F5000;
G1 X-215.940 Y169.230 F5000;
G1 X-218.535 Y165.770 F5000;
G1 X-219.400 Y169.230 F5000;
G1 X-221.995 Y171.825 F5000;
G1 X-221.130 Y172.690 F5000;
G1 X-219.400 Y170.095 F5000;
G1 X-216.805 Y171.825 F5000;
G1 X-212.480 Y170.960 F5000;
G1 X-208.155 Y174.420 F5000;
G1 X-208.155 Y177.880 F5000;
G1 X-213.345 Y183.070 F5000;
G1 X-214.210 Y181.340 F5000;
G1 X-218.535 Y181.340 F5000;
G1 X-219.400 Y177.880 F5000;
G1 X-224.590 Y182.205 F5000;
G1 X-227.185 Y182.205 F5000;
G1 X-229.780 Y178.745 F5000;
G1 X-232.375 Y180.475 F5000;
G1 X-233.240 Y184.800 F5000;
G1 X-231.510 Y186.530 F5000;
G1 X-229.780 Y193.450 F5000;
G1 X-226.320 Y194.315 F5000;
G1 X-221.995 Y192.585 F5000;
G1 X-219.400 Y195.180 F5000;
G1 X-219.400 Y200.370 F5000;
G1 X-221.995 Y202.965 F5000;
G1 X-228.050 Y202.100 F5000;
G1 X-231.510 Y203.830 F5000;
G1 X-234.105 Y201.235 F5000;
G1 X-232.375 Y198.640 F5000;
G1 X-234.105 Y196.910 F5000;
G1 X-233.240 Y200.370 F5000;
G1 X-236.700 Y200.370 F5000;
G1 X-240.160 Y194.315 F5000;
G1 X-239.295 Y200.370 F5000;
G1 X-241.890 Y206.425 F5000;
G1 X-245.350 Y207.290 F5000;
G1 X-246.215 Y204.695 F5000;
G1 X-249.675 Y204.695 F5000;
G1 X-251.405 Y202.965 F5000;
G1 X-251.405 Y200.370 F5000;
G1 X-247.080 Y195.180 F5000;
G1 X-242.755 Y193.450 F5000;
G1 X-242.755 Y190.855 F5000;
G1 X-248.810 Y190.855 F5000;
G1 X-250.540 Y187.395 F5000;
G1 X-242.755 Y184.800 F5000;
G1 X-243.620 Y174.420 F5000;
G1 X-237.565 Y170.095 F5000;
G1 X-232.375 Y170.095 F5000;
G1 X-227.185 Y174.420 F5000;
G1 X-225.455 Y171.825 F5000;
G1 X-226.320 Y170.960 F5000;
G1 X-229.780 Y170.960 F5000;
G1 X-229.780 Y168.365 F5000;
G1 X-237.565 Y168.365 F5000;
G1 X-241.025 Y170.095 F5000;
G1 X-244.485 Y173.555 F5000;
G1 X-244.485 Y178.745 F5000;
G1 X-247.080 Y182.205 F5000;
G1 X-248.810 Y182.205 F5000;
G1 X-251.405 Y178.745 F5000;
G1 X-251.405 Y175.285 F5000;
G1 X-256.595 Y170.960 F5000;
G1 X-254.000 Y165.770 F5000;
G1 X-256.595 Y165.770 F5000;
G1 X-257.460 Y167.500 F5000;
G1 X-265.245 Y171.825 F5000;
G1 X-270.435 Y170.095 F5000;
G1 X-283.410 Y170.095 F5000;
G1 X-284.275 Y182.205 F5000;
G1 X-282.545 Y181.340 F5000;
G1 X-282.545 Y176.150 F5000;
G1 X-279.950 Y172.690 F5000;
G1 X-273.895 Y172.690 F5000;
G1 X-268.705 Y174.420 F5000;
G1 X-262.650 Y179.610 F5000;
G1 X-259.190 Y179.610 F5000;
G1 X-253.135 Y185.665 F5000;
G1 X-254.000 Y194.315 F5000;
G1 X-256.595 Y193.450 F5000;
G1 X-256.595 Y189.990 F5000;
G1 X-264.380 Y192.585 F5000;
G1 X-269.570 Y198.640 F5000;
G1 X-283.410 Y206.425 F5000;
G1 X-279.085 Y207.290 F5000;
G1 X-277.355 Y209.020 F5000;
G1 X-278.220 Y211.615 F5000;
G1 X-282.545 Y215.940 F5000;
G1 X-286.870 Y216.805 F5000;
G1 X-286.005 Y218.535 F5000;
G1 X-271.300 Y215.940 F5000;
G1 X-266.110 Y211.615 F5000;
G1 X-267.840 Y210.750 F5000;
G1 X-266.975 Y207.290 F5000;
G1 X-262.650 Y203.830 F5000;
G1 X-260.055 Y203.830 F5000;
G1 X-256.595 Y210.750 F5000;
G1 X-265.245 Y221.995 F5000;
G1 X-268.705 Y221.130 F5000;
G1 X-270.435 Y222.860 F5000;
G1 X-273.895 Y222.860 F5000;
G1 X-274.760 Y228.050 F5000;
G1 X-276.490 Y229.780 F5000;
G1 X-276.490 Y232.375 F5000;
G1 X-274.760 Y233.240 F5000;
G1 X-270.435 Y231.510 F5000;
G1 X-265.245 Y232.375 F5000;
G1 X-263.515 Y234.105 F5000;
G1 X-263.515 Y239.295 F5000;
G1 X-266.110 Y241.890 F5000;
G1 X-269.570 Y241.890 F5000;
G1 X-273.030 Y244.485 F5000;
G1 X-275.625 Y243.620 F5000;
G1 X-278.220 Y240.160 F5000;
G1 X-280.815 Y241.025 F5000;
G1 X-280.815 Y255.730 F5000;
G1 X-286.870 Y252.270 F5000;
G1 X-286.870 Y247.945 F5000;
G1 X-288.600 Y244.485 F5000;
G1 X-292.060 Y248.810 F5000;
G1 X-290.330 Y251.405 F5000;
G1 X-286.870 Y253.135 F5000;
G1 X-287.735 Y255.730 F5000;
G1 X-297.250 Y254.000 F5000;
G1 X-300.710 Y251.405 F5000;
G1 X-301.575 Y252.270 F5000;
G1 X-298.980 Y258.325 F5000;
G1 X-293.790 Y257.460 F5000;
G1 X-289.465 Y260.920 F5000;
G1 X-288.600 Y266.110 F5000;
G1 X-283.410 Y258.325 F5000;
G1 X-278.220 Y260.920 F5000;
G1 X-273.895 Y260.055 F5000;
G1 X-273.895 Y252.270 F5000;
G1 X-271.300 Y248.810 F5000;
G1 X-266.110 Y253.135 F5000;
G1 X-263.515 Y258.325 F5000;
G1 X-260.055 Y260.055 F5000;
G1 X-261.785 Y263.515 F5000;
G1 X-266.110 Y266.110 F5000;
G1 X-270.435 Y264.380 F5000;
G1 X-272.165 Y265.245 F5000;
G1 X-279.085 Y279.085 F5000;
G1 X-282.545 Y279.950 F5000;
G1 X-285.140 Y278.220 F5000;
G1 X-285.140 Y273.895 F5000;
G1 X-287.735 Y277.355 F5000;
G1 X-292.925 Y277.355 F5000;
G1 X-286.870 Y279.085 F5000;
G1 X-283.410 Y286.005 F5000;
G1 X-274.760 Y286.005 F5000;
G1 X-271.300 Y290.330 F5000;
G1 X-270.435 Y279.085 F5000;
G1 X-268.705 Y278.220 F5000;
G1 X-266.975 Y279.950 F5000;
G1 X-268.705 Y281.680 F5000;
G1 X-266.110 Y282.545 F5000;
G1 X-266.110 Y285.140 F5000;
G1 X-262.650 Y289.465 F5000;
G1 X-266.975 Y293.790 F5000;
G1 X-266.975 Y305.900 F5000;
G1 X-280.815 Y296.385 F5000;
G1 X-286.005 Y294.655 F5000;
G1 X-289.465 Y291.195 F5000;
G1 X-291.195 Y286.870 F5000;
G1 X-294.655 Y286.005 F5000;
G1 X-291.195 Y291.195 F5000;
G1 X-292.060 Y298.115 F5000;
G1 X-286.005 Y297.250 F5000;
G1 X-279.950 Y300.710 F5000;
G1 X-276.490 Y300.710 F5000;
G1 X-271.300 Y307.630 F5000;
G1 X-271.300 Y311.955 F5000;
G1 X-267.840 Y314.550 F5000;
G1 X-266.110 Y314.550 F5000;
G1 X-266.110 Y305.900 F5000;
G1 X-264.380 Y306.765 F5000;
G1 X-262.650 Y311.090 F5000;
G1 X-258.325 Y313.685 F5000;
G1 X-258.325 Y315.415 F5000;
G1 X-262.650 Y319.740 F5000;
G1 X-265.245 Y318.875 F5000;
G1 X-267.840 Y321.470 F5000;
G1 X-268.705 Y327.525 F5000;
G1 X-270.435 Y330.120 F5000;
G1 X-271.300 Y324.065 F5000;
G1 X-277.355 Y322.335 F5000;
G1 X-279.950 Y323.200 F5000;
G1 X-278.220 Y327.525 F5000;
G1 X-279.950 Y334.445 F5000;
G1 X-278.220 Y337.040 F5000;
G1 X-278.220 Y345.690 F5000;
G1 X-275.625 Y347.420 F5000;
G1 X-272.165 Y347.420 F5000;
G1 X-265.245 Y355.205 F5000;
G1 X-266.110 Y359.530 F5000;
G1 X-261.785 Y366.450 F5000;
G1 X-264.380 Y370.775 F5000;
G1 X-264.380 Y376.830 F5000;
G1 X-266.110 Y378.560 F5000;
G1 X-268.705 Y377.695 F5000;
G1 X-268.705 Y375.100 F5000;
G1 X-273.895 Y375.100 F5000;
G1 X-277.355 Y377.695 F5000;
G1 X-262.650 Y381.155 F5000;
G1 X-260.920 Y379.425 F5000;
G1 X-260.920 Y375.100 F5000;
G1 X-262.650 Y371.640 F5000;
G1 X-262.650 Y367.315 F5000;
G1 X-260.920 Y366.450 F5000;
G1 X-256.595 Y374.235 F5000;
G1 X-249.675 Y382.020 F5000;
G1 X-247.945 Y382.020 F5000;
G1 X-244.485 Y385.480 F5000;
G1 X-244.485 Y387.210 F5000;
G1 X-234.970 Y389.805 F5000;
G1 X-236.700 Y392.400 F5000;
G1 X-238.430 Y390.670 F5000;
G1 X-241.890 Y391.535 F5000;
G1 X-245.350 Y389.805 F5000;
G1 X-244.485 Y393.265 F5000;
G1 X-242.755 Y394.130 F5000;
G1 X-243.620 Y397.590 F5000;
G1 X-245.350 Y397.590 F5000;
G1 X-245.350 Y394.995 F5000;
G1 X-247.945 Y399.320 F5000;
G1 X-252.270 Y402.780 F5000;
G1 X-263.515 Y402.780 F5000;
G1 X-266.110 Y408.835 F5000;
G1 X-264.380 Y410.565 F5000;
G1 X-262.650 Y410.565 F5000;
G1 X-258.325 Y406.240 F5000;
G1 X-254.000 Y406.240 F5000;
G1 X-252.270 Y409.700 F5000;
G1 X-243.620 Y409.700 F5000;
G1 X-243.620 Y401.915 F5000;
G1 X-239.295 Y394.130 F5000;
G1 X-237.565 Y393.265 F5000;
G1 X-236.700 Y395.860 F5000;
G1 X-232.375 Y396.725 F5000;
G1 X-232.375 Y388.940 F5000;
G1 X-231.510 Y388.075 F5000;
G1 X-228.915 Y389.805 F5000;
G1 X-226.320 Y387.210 F5000;
G1 X-222.860 Y390.670 F5000;
G1 X-218.535 Y387.210 F5000;
G1 X-220.265 Y382.885 F5000;
G1 X-218.535 Y381.155 F5000;
G1 X-213.345 Y386.345 F5000;
G1 X-213.345 Y388.075 F5000;
G1 X-215.940 Y388.075 F5000;
G1 X-221.130 Y398.455 F5000;
G1 X-223.725 Y398.455 F5000;
G1 X-223.725 Y403.645 F5000;
G1 X-219.400 Y401.050 F5000;
G1 X-218.535 Y401.915 F5000;
G1 X-219.400 Y409.700 F5000;
G1 X-212.480 Y408.835 F5000;
G1 X-213.345 Y405.375 F5000;
G1 X-216.805 Y406.240 F5000;
G1 X-218.535 Y402.780 F5000;
G1 X-215.075 Y401.915 F5000;
G1 X-209.885 Y396.725 F5000;
G1 X-208.155 Y396.725 F5000;
G1 X-202.965 Y402.780 F5000;
G1 X-195.180 Y403.645 F5000;
G1 X-193.450 Y405.375 F5000;
G1 X-194.315 Y407.970 F5000;
G1 X-199.505 Y410.565 F5000;
G1 X-200.370 Y412.295 F5000;
G1 X-196.045 Y412.295 F5000;
G1 X-193.450 Y415.755 F5000;
G1 X-185.665 Y417.485 F5000;
G1 X-185.665 Y414.025 F5000;
G1 X-188.260 Y413.160 F5000;
G1 X-190.855 Y409.700 F5000;
G1 X-190.855 Y407.970 F5000;
G1 X-188.260 Y405.375 F5000;
G1 X-184.800 Y405.375 F5000;
G1 X-183.070 Y403.645 F5000;
G1 X-180.475 Y404.510 F5000;
G1 X-177.880 Y407.105 F5000;
G1 X-179.610 Y411.430 F5000;
G1 X-177.880 Y414.890 F5000;
G1 X-177.015 Y407.970 F5000;
G1 X-170.960 Y408.835 F5000;
G1 X-164.905 Y405.375 F5000;
G1 X-159.715 Y406.240 F5000;
G1 X-157.985 Y402.780 F5000;
G1 X-150.200 Y402.780 F5000;
G1 X-148.470 Y401.050 F5000;
G1 X-145.010 Y401.050 F5000;
G1 X-139.820 Y403.645 F5000;
G1 X-133.765 Y403.645 F5000;
G1 X-131.170 Y401.050 F5000;
G1 X-126.845 Y400.185 F5000;
G1 X-119.925 Y395.860 F5000;
G1 X-109.545 Y395.860 F5000;
G1 X-101.760 Y389.805 F5000;
G1 X-101.760 Y382.020 F5000;
G1 X-98.300 Y383.750 F5000;
G1 X-100.030 Y392.400 F5000;
G1 X-98.300 Y400.185 F5000;
G1 X-95.705 Y403.645 F5000;
G1 X-95.705 Y401.050 F5000;
G1 X-99.165 Y394.130 F5000;
G1 X-96.570 Y388.940 F5000;
G1 X-94.840 Y388.075 F5000;
G1 X-92.245 Y390.670 F5000;
G1 X-93.110 Y395.860 F5000;
G1 X-84.460 Y393.265 F5000;
G1 X-81.865 Y390.670 F5000;
G1 X-82.730 Y388.940 F5000;
G1 X-86.190 Y390.670 F5000;
G1 X-87.920 Y388.940 F5000;
G1 X-87.055 Y386.345 F5000;
G1 X-85.325 Y386.345 F5000;
G1 X-84.460 Y382.885 F5000;
G1 X-89.650 Y382.885 F5000;
G1 X-90.515 Y379.425 F5000;
G1 X-85.325 Y376.830 F5000;
G1 X-87.055 Y374.235 F5000;
G1 X-77.540 Y360.395 F5000;
G1 X-77.540 Y358.665 F5000;
G1 X-84.460 Y362.125 F5000;
G1 X-87.055 Y360.395 F5000;
G1 X-87.055 Y355.205 F5000;
G1 X-85.325 Y353.475 F5000;
G1 X-81.865 Y353.475 F5000;
G1 X-80.135 Y355.205 F5000;
G1 X-77.540 Y355.205 F5000;
G1 X-74.080 Y352.610 F5000;
G1 X-73.215 Y348.285 F5000;
G1 X-74.945 Y344.825 F5000;
G1 X-68.890 Y332.715 F5000;
G1 X-68.890 Y321.470 F5000;
G1 X-67.160 Y320.605 F5000;
G1 X-63.700 Y322.335 F5000;
G1 X-61.105 Y329.255 F5000;
G1 X-63.700 Y330.120 F5000;
G1 X-55.915 Y332.715 F5000;
G1 X-59.375 Y327.525 F5000;
G1 X-58.510 Y323.200 F5000;
G1 X-54.185 Y323.200 F5000;
G1 X-48.995 Y325.795 F5000;
G1 X-45.535 Y325.795 F5000;
G1 X-44.670 Y324.065 F5000;
G1 X-46.400 Y320.605 F5000;
G1 X-52.455 Y318.010 F5000;
G1 X-55.915 Y318.010 F5000;
G1 X-59.375 Y322.335 F5000;
G1 X-61.970 Y322.335 F5000;
G1 X-64.565 Y319.740 F5000;
G1 X-65.430 Y314.550 F5000;
G1 X-61.970 Y313.685 F5000;
G1 X-61.105 Y317.145 F5000;
G1 X-57.645 Y314.550 F5000;
G1 X-48.995 Y313.685 F5000;
G1 X-43.805 Y311.090 F5000;
G1 X-44.670 Y307.630 F5000;
G1 X-48.995 Y309.360 F5000;
G1 X-53.320 Y306.765 F5000;
G1 X-55.915 Y301.575 F5000;
G1 X-58.510 Y301.575 F5000;
G1 X-59.375 Y306.765 F5000;
G1 X-62.835 Y308.495 F5000;
G1 X-63.700 Y302.440 F5000;
G1 X-59.375 Y298.980 F5000;
G1 X-56.780 Y287.735 F5000;
G1 X-55.050 Y286.005 F5000;
G1 X-49.860 Y286.005 F5000;
G1 X-47.265 Y281.680 F5000;
G1 X-46.400 Y276.490 F5000;
G1 X-44.670 Y274.760 F5000;
G1 X-40.345 Y274.760 F5000;
G1 X-43.805 Y271.300 F5000;
G1 X-44.670 Y254.000 F5000;
G1 X-47.265 Y248.810 F5000;
G1 X-45.535 Y247.080 F5000;
G1 X-42.940 Y247.080 F5000;
G1 X-40.345 Y244.485 F5000;
G1 X-40.345 Y242.755 F5000;
G1 X-55.050 Y242.755 F5000;
G1 X-63.700 Y234.970 F5000;
G1 X-61.105 Y233.240 F5000;
G1 X-60.240 Y229.780 F5000;
G1 X-58.510 Y231.510 F5000;
G1 X-59.375 Y235.835 F5000;
G1 X-57.645 Y237.565 F5000;
G1 X-50.725 Y238.430 F5000;
G1 X-49.860 Y235.835 F5000;
G1 X-42.940 Y234.970 F5000;
G1 X-36.885 Y231.510 F5000;
G1 X-36.885 Y229.780 F5000;
G1 X-47.265 Y230.645 F5000;
G1 X-49.860 Y228.050 F5000;
G1 X-52.455 Y229.780 F5000;
G1 X-53.320 Y222.860 F5000;
G1 X-50.725 Y213.345 F5000;
G1 X-46.400 Y212.480 F5000;
G1 X-48.995 Y209.020 F5000;
G1 X-48.130 Y203.830 F5000;
G1 X-49.860 Y200.370 F5000;
G1 X-46.400 Y199.505 F5000;
G1 X-42.940 Y194.315 F5000;
G1 X-36.020 Y191.720 F5000;
G1 X-42.075 Y191.720 F5000;
G1 X-48.130 Y195.180 F5000;
G1 X-53.320 Y192.585 F5000;
G1 X-56.780 Y194.315 F5000;
G1 X-60.240 Y189.125 F5000;
G1 X-55.915 Y189.125 F5000;
G1 X-56.780 Y185.665 F5000;
G1 X-66.295 Y175.285 F5000;
G1 X-69.755 Y168.365 F5000;
G1 X-74.945 Y169.230 F5000;
G1 X-80.135 Y166.635 F5000;
G1 X-81.865 Y170.095 F5000;
G1 X-78.405 Y173.555 F5000;
G1 X-71.485 Y172.690 F5000;
G1 X-62.835 Y179.610 F5000;
G1 X-62.835 Y181.340 F5000;
G1 X-65.430 Y183.070 F5000;
G1 X-70.620 Y180.475 F5000;
G1 X-75.810 Y180.475 F5000;
G1 X-81.000 Y177.015 F5000;
G1 X-87.055 Y175.285 F5000;
G1 X-88.785 Y173.555 F5000;
G1 X-88.785 Y166.635 F5000;
G1 X-90.515 Y164.905 F5000;
G1 X-94.840 Y165.770 F5000;
G1 X-96.570 Y164.040 F5000;
G1 X-97.435 Y155.390 F5000;
G1 X-95.705 Y153.660 F5000;
G1 X-94.840 Y157.985 F5000;
G1 X-92.245 Y160.580 F5000;
G1 X-87.055 Y158.850 F5000;
G1 X-77.540 Y158.850 F5000;
G1 X-74.945 Y161.445 F5000;
G1 X-71.485 Y161.445 F5000;
G1 X-71.485 Y157.985 F5000;
G1 X-76.675 Y157.120 F5000;
G1 X-75.810 Y151.065 F5000;
G1 X-79.270 Y156.255 F5000;
G1 X-92.245 Y153.660 F5000;
G1 X-93.975 Y151.065 F5000;
G1 X-93.975 Y145.875 F5000;
G1 X-92.245 Y145.010 F5000;
G1 X-90.515 Y146.740 F5000;
G1 X-87.920 Y146.740 F5000;
G1 X-87.055 Y144.145 F5000;
G1 X-88.785 Y142.415 F5000;
G1 X-96.570 Y142.415 F5000;
G1 X-100.030 Y138.090 F5000;
G1 X-98.300 Y130.305 F5000;
G1 X-88.785 Y132.035 F5000;
G1 X-83.595 Y122.520 F5000;
G1 X-78.405 Y125.980 F5000;
G1 X-78.405 Y123.385 F5000;
G1 X-76.675 Y121.655 F5000;
G1 X-80.135 Y117.330 F5000;
G1 X-80.135 Y114.735 F5000;
G1 X-81.865 Y116.465 F5000;
G1 X-83.595 Y114.735 F5000;
G1 X-82.730 Y119.060 F5000;
G1 X-87.055 Y122.520 F5000;
G1 X-90.515 Y119.925 F5000;
G1 X-92.245 Y121.655 F5000;
G1 X-92.245 Y128.575 F5000;
G1 X-93.975 Y128.575 F5000;
G1 X-96.570 Y125.980 F5000;
G1 X-99.165 Y125.980 F5000;
G1 X-101.760 Y122.520 F5000;
G1 X-100.030 Y113.005 F5000;
G1 X-98.300 Y110.410 F5000;
G1 X-87.055 Y110.410 F5000;
G1 X-87.055 Y108.680 F5000;
G1 X-93.975 Y109.545 F5000;
G1 X-96.570 Y106.085 F5000;
G1 X-86.190 Y93.975 F5000;
G1 X-84.460 Y89.650 F5000;
G1 X-88.785 Y81.865 F5000;
G1 X-82.730 Y81.000 F5000;
G1 X-84.460 Y79.270 F5000;
G1 X-84.460 Y74.945 F5000;
G1 X-88.785 Y79.270 F5000;
G1 X-91.380 Y76.675 F5000;
G1 X-92.245 Y81.000 F5000;
G1 X-95.705 Y86.190 F5000;
G1 X-98.300 Y84.460 F5000;
G1 X-100.030 Y80.135 F5000;
G1 X-101.760 Y80.135 F5000;
G1 X-101.760 Y82.730 F5000;
G1 X-105.220 Y85.325 F5000;
G1 X-114.735 Y82.730 F5000;
G1 X-119.925 Y76.675 F5000;
G1 X-123.385 Y81.865 F5000;
G1 X-133.765 Y83.595 F5000;
G1 X-137.225 Y82.730 F5000;
G1 X-138.955 Y84.460 F5000;
G1 X-141.550 Y84.460 F5000;
G1 X-144.145 Y81.865 F5000;
G1 X-141.550 Y80.135 F5000;
G1 X-146.740 Y78.405 F5000;
G1 X-151.930 Y73.215 F5000;
G1 X-151.930 Y71.485 F5000;
G1 X-148.470 Y65.430 F5000;
G1 X-145.875 Y65.430 F5000;
G1 X-144.145 Y68.025 F5000;
G1 X-145.010 Y72.350 F5000;
G1 X-143.280 Y68.025 F5000;
G1 X-137.225 Y63.700 F5000;
G1 X-138.090 Y61.105 F5000;
G1 X-136.360 Y59.375 F5000;
G1 X-136.360 Y50.725 F5000;
G1 X-138.955 Y43.805 F5000;
G1 X-140.685 Y45.535 F5000;
G1 X-140.685 Y51.590 F5000;
G1 X-138.955 Y56.780 F5000;
G1 X-139.820 Y59.375 F5000;
G1 X-143.280 Y61.105 F5000;
G1 X-147.605 Y60.240 F5000;
G1 X-150.200 Y65.430 F5000;
G1 X-155.390 Y65.430 F5000;
G1 X-160.580 Y61.105 F5000;
G1 X-160.580 Y57.645 F5000;
G1 X-164.905 Y57.645 F5000;
G1 X-164.905 Y59.375 F5000;
G1 X-161.445 Y60.240 F5000;
G1 X-151.930 Y72.350 F5000;
G1 X-154.525 Y80.135 F5000;
G1 X-164.905 Y77.540 F5000;
G1 X-159.715 Y72.350 F5000;
G1 X-162.310 Y71.485 F5000;
G1 X-166.635 Y74.945 F5000;
G1 X-170.960 Y73.215 F5000;
G1 X-171.825 Y74.945 F5000;
G1 X-170.095 Y74.945 F5000;
G1 X-168.365 Y77.540 F5000;
G1 X-172.690 Y79.270 F5000;
G1 X-181.340 Y78.405 F5000;
G1 X-197.775 Y81.865 F5000;
G1 X-199.505 Y83.595 F5000;
G1 X-202.965 Y83.595 F5000;
G1 X-204.695 Y81.000 F5000;
G1 X-208.155 Y81.000 F5000;
G1 X-210.750 Y82.730 F5000;
G1 X-219.400 Y75.810 F5000;
G1 X-220.265 Y70.620 F5000;
G1 X-222.860 Y68.025 F5000;
G1 X-224.590 Y68.025 F5000;
G1 X-225.455 Y70.620 F5000;
G1 X-226.320 Y70.620 F5000;
G1 X-224.590 Y72.350 F5000;
G1 X-223.725 Y77.540 F5000;
G1 X-221.130 Y77.540 F5000;
G1 X-217.670 Y80.135 F5000;
G1 X-220.265 Y81.865 F5000;
G1 X-224.590 Y80.135 F5000;
G1 X-234.970 Y80.135 F5000;
G1 X-239.295 Y78.405 F5000;
G1 X-239.295 Y74.945 F5000;
G1 X-241.025 Y73.215 F5000;
G1 X-239.295 Y70.620 F5000;
G1 X-243.620 Y67.160 F5000;
G1 X-243.620 Y65.430 F5000;
G1 X-241.890 Y63.700 F5000;
G1 X-239.295 Y63.700 F5000;
G1 X-242.755 Y62.835 F5000;
G4 P0;
M40 S30;
G4 P0.12;
G1 X-340.500 Y-5.500 F5000;